Locality_Name,Post_Code,Lat,Lng
MELBOURNE,3000,-37.814563,144.970267
MELBOURNE,3001,-38.365017,144.76592
EAST MELBOURNE,3002,-37.81664,144.987811
WEST MELBOURNE,3003,-37.806255,144.941123
MELBOURNE,3004,-37.837324,144.976335
WORLD TRADE CENTRE,3005,-37.822262,144.954856
SOUTHBANK,3006,-37.823258,144.965926
DOCKLANDS,3008,-37.814719,144.948039
UNIVERSITY OF MELBOURNE,3010,-37.796152,144.961351
FOOTSCRAY,3011,-37.79977,144.899587
SEDDON,3011,-37.808769,144.895486
SEDDON WEST,3011,-37.795059,144.866197
BROOKLYN,3012,-37.814624,144.847108
KINGSVILLE,3012,-37.812635,144.881803
KINGSVILLE WEST,3012,-37.795059,144.866197
MAIDSTONE,3012,-37.782096,144.874299
TOTTENHAM,3012,-37.799065,144.857829
WEST FOOTSCRAY,3012,-37.797701,144.879924
YARRAVILLE,3013,-37.816178,144.889774
YARRAVILLE WEST,3013,-37.818019,144.883582
NEWPORT,3015,-37.842477,144.883145
SOUTH KINGSVILLE,3015,-37.833627,144.870742
SPOTSWOOD,3015,-37.82967,144.885078
WILLIAMSTOWN,3016,-37.856902,144.897698
WILLIAMSTOWN NORTH,3016,-37.857681,144.887041
ALTONA,3018,-37.869275,144.830286
SEAHOLME,3018,-37.867992,144.843609
BRAYBROOK,3019,-37.779309,144.855359
BRAYBROOK NORTH,3019,-37.84536,144.894555
ROBINSON,3019,-37.834094,145.040941
ALBION,3020,-37.775954,144.819395
GLENGALA,3020,-37.788346,144.809505
SUNSHINE NORTH,3020,-37.768904,144.830258
SUNSHINE WEST,3020,-37.79983,144.81845
ALBANVALE,3021,-37.745934,144.770027
KEALBA,3021,-37.742331,144.825918
KINGS PARK,3021,-37.734277,144.780872
ST ALBANS,3021,-37.745063,144.799626
ARDEER,3022,-37.78292,144.801018
DEER PARK EAST,3022,-37.740815,144.797867
BURNSIDE,3023,-37.753381,144.752618
BURNSIDE HEIGHTS,3023,-37.771039,144.772248
CAIRNLEA,3023,-37.762076,144.754169
CAROLINE SPRINGS,3023,-37.74124,144.736311
DEER PARK,3023,-37.770312,144.77472
DEER PARK NORTH,3023,-37.744466,144.751767
RAVENHALL,3023,-37.766501,144.738709
MAMBOURIN,3024,-37.899873,144.556552
MOUNT COTTRELL,3024,-37.76516,144.609501
WYNDHAM VALE,3024,-37.891641,144.629467
ALTONA EAST,3025,-37.835657,144.85995
ALTONA GATE,3025,-37.825297,144.842988
ALTONA NORTH,3025,-37.842879,144.850049
LAVERTON NORTH,3026,-37.841653,144.795959
LAVERTON RAAF,3027,-37.859941,144.760517
ALTONA MEADOWS,3028,-37.871632,144.778084
LAVERTON,3028,-37.866939,144.761748
SEABROOK,3028,-37.877626,144.75777
HOPPERS CROSSING,3029,-37.882636,144.700297
TARNEIT,3029,-37.823738,144.692893
TRUGANINA,3029,-37.825004,144.748931
COCOROC,3030,-37.969994,144.582987
DERRIMUT,3030,-37.797549,144.771097
POINT COOK,3030,-37.914616,144.751038
QUANDONG,3030,-37.838725,144.554915
WERRIBEE,3030,-37.903337,144.657731
WERRIBEE SOUTH,3030,-37.903337,144.657731
FLEMINGTON,3031,-37.788375,144.931472
KENSINGTON,3031,-37.794333,144.929217
ASCOT VALE,3032,-37.77583,144.923377
HIGHPOINT CITY,3032,-37.773272,144.888794
MARIBYRNONG,3032,-37.772229,144.886116
TRAVANCORE,3032,-37.777773,144.929915
KEILOR EAST,3033,-37.736264,144.796336
AVONDALE HEIGHTS,3034,-37.742284,144.81515
KEILOR,3036,-37.718965,144.834166
KEILOR NORTH,3036,-37.704771,144.814229
DELAHEY,3037,-37.715579,144.780474
HILLSIDE,3037,-37.691437,144.74002
SYDENHAM,3037,-37.70004,144.764617
TAYLORS HILL,3037,-37.710381,144.766791
KEILOR DOWNS,3038,-37.725726,144.811346
KEILOR LODGE,3038,-37.695768,144.797032
TAYLORS LAKES,3038,-37.698758,144.78766
WATERGARDENS,3038,-37.698952,144.777576
MOONEE PONDS,3039,-37.765707,144.919163
ABERFELDIE,3040,-37.75669,144.896259
ESSENDON,3040,-37.754973,144.917407
ESSENDON WEST,3040,-37.753802,144.888271
ESSENDON NORTH,3041,-37.744374,144.909853
STRATHMORE,3041,-37.735876,144.919176
STRATHMORE HEIGHTS,3041,-37.716678,144.897568
AIRPORT WEST,3042,-37.711698,144.887037
KEILOR PARK,3042,-37.72465,144.850373
NIDDRIE,3042,-37.736031,144.889072
GLADSTONE PARK,3043,-37.68861,144.883628
GOWANBRAE,3043,-37.706316,144.894885
TULLAMARINE,3043,-37.68656,144.882698
PASCOE VALE,3044,-37.727568,144.939122
PASCOE VALE SOUTH,3044,-37.739198,144.945722
MELBOURNE AIRPORT,3045,-37.668873,144.833931
GLENROY,3046,-37.704581,144.915758
HADFIELD,3046,-37.707238,144.93832
OAK PARK,3046,-37.71817,144.919959
BROADMEADOWS,3047,-37.680792,144.921009
DALLAS,3047,-37.673333,144.931141
JACANA,3047,-37.690301,144.915729
COOLAROO,3048,-37.651811,144.930466
MEADOW HEIGHTS,3048,-37.64986,144.922104
ATTWOOD,3049,-37.667515,144.88529
CALDER PARK,3049,-37.700648,144.755896
WESTMEADOWS,3049,-37.673551,144.90086
ROYAL MELBOURNE HOSPITAL,3050,-37.798631,144.955627
NORTH MELBOURNE,3051,-37.905996,145.056254
MELBOURNE UNIVERSITY,3052,-37.796152,144.961351
PARKVILLE,3052,-37.788531,144.947731
CARLTON,3053,-37.784337,144.969747
CARLTON SOUTH,3053,-37.778987,145.0026
CARLTON NORTH,3054,-37.784337,144.969747
PRINCES HILL,3054,-37.780995,144.962792
BRUNSWICK SOUTH,3055,-37.772049,144.944635
BRUNSWICK WEST,3055,-37.762489,144.961176
MOONEE VALE,3055,-37.763919,144.940314
MORELAND WEST,3055,-37.713902,144.937112
BRUNSWICK,3056,-37.764829,144.943778
BRUNSWICK LOWER,3056,-37.759717,144.95137
BRUNSWICK NORTH,3056,-37.760071,144.972291
BRUNSWICK EAST,3057,-37.76491,144.979567
BATMAN,3058,-37.733524,144.962837
COBURG,3058,-37.743188,144.966279
COBURG NORTH,3058,-37.730842,144.971699
MERLYNSTON,3058,-37.720932,144.96131
MORELAND,3058,-37.748315,144.961827
GREENVALE,3059,-37.642984,144.88872
FAWKNER,3060,-37.759823,144.89571
FAWKNER EAST,3060,-37.709159,144.950411
FAWKNER NORTH,3060,-37.705055,144.944577
CAMPBELLFIELD,3061,-37.643746,144.951369
SOMERTON,3062,-37.642563,144.944259
OAKLANDS JUNCTION,3063,-37.629826,144.839244
YUROKE,3063,-37.589589,144.879406
CRAIGIEBURN,3064,-37.598975,144.941287
DONNYBROOK,3064,-37.542028,144.963579
KALKALLO,3064,-37.529372,144.947106
MICKLEHAM,3064,-37.560864,144.879078
ROXBURGH PARK,3064,-37.636795,144.932604
FITZROY,3065,-37.800917,144.979165
COLLINGWOOD,3066,-37.800366,144.984149
COLLINGWOOD NORTH,3066,-37.789805,144.990796
ABBOTSFORD,3067,-37.801781,144.998752
CLIFTON HILL,3068,-37.788118,144.992067
FITZROY NORTH,3068,-37.7834,144.984688
NORTHCOTE,3070,-37.769857,144.995276
NORTHCOTE SOUTH,3070,-37.779039,145.006746
THORNBURY,3071,-37.75504,144.998589
NORTHLAND CENTRE,3072,-37.742047,145.027716
PRESTON,3072,-37.738736,145.000515
PRESTON LOWER,3072,-37.743606,145.019624
PRESTON SOUTH,3072,-37.743356,145.009123
PRESTON WEST,3072,-37.736855,145.003005
KEON PARK,3073,-37.694672,145.011907
RESERVOIR,3073,-37.716897,145.006985
RESERVOIR EAST,3073,-37.722243,145.011124
RESERVOIR NORTH,3073,-37.723105,145.018195
RESERVOIR SOUTH,3073,-37.714796,144.944655
THOMASTOWN,3074,-37.680338,145.014287
LALOR,3075,-37.665857,145.017194
LALOR PLAZA,3075,-37.673141,145.016634
EPPING,3076,-37.638363,145.009493
ALPHINGTON,3078,-37.780767,145.03116
FAIRFIELD,3078,-37.776946,145.018479
IVANHOE,3079,-37.76964,145.041425
IVANHOE EAST,3079,-37.77283,145.059401
IVANHOE NORTH,3079,-37.723105,145.018195
BELLFIELD,3081,-37.751819,145.045449
HEIDELBERG HEIGHTS,3081,-37.742268,145.048873
HEIDELBERG WEST,3081,-37.74944,145.0414
MILL PARK,3082,-37.667957,145.060693
BUNDOORA,3083,-37.70132,145.071967
KINGSBURY,3083,-37.714064,145.035103
LA TROBE UNIVERSITY,3083,-37.721328,145.047012
BANYULE,3084,-37.744219,145.08793
EAGLEMONT,3084,-37.762519,145.068208
HEIDELBERG,3084,-37.756341,145.067145
ROSANNA,3084,-37.742893,145.065044
VIEWBANK,3084,-37.739262,145.096424
MACLEOD,3085,-37.726038,145.068457
MACLEOD WEST,3085,-37.736354,145.038518
YALLAMBIE,3085,-37.727482,145.102309
LA TROBE UNIVERSITY,3086,-37.721328,145.047012
WATSONIA,3087,-37.712531,145.082098
WATSONIA NORTH,3087,-37.698352,145.084586
BRIAR HILL,3088,-37.709483,145.120135
GREENSBOROUGH,3088,-37.704622,145.103024
SAINT HELENA,3088,-37.690585,145.130847
DIAMOND CREEK,3089,-37.642629,145.217595
PLENTY,3090,-37.671565,145.124024
YARRAMBAT,3091,-37.639769,145.132663
LOWER PLENTY,3093,-37.730758,145.088118
MONTMORENCY,3094,-37.715294,145.121583
ELTHAM,3095,-37.71383,145.148537
ELTHAM NORTH,3095,-37.69401,145.147506
RESEARCH,3095,-37.703602,145.180636
WATTLE GLEN,3096,-37.670101,145.190928
BEND OF ISLANDS,3097,-37.697232,145.284134
KANGAROO GROUND,3097,-37.692032,145.215528
WATSONS CREEK,3097,-37.67058,145.256526
ARTHURS CREEK,3099,-37.587697,145.218156
COTTLES BRIDGE,3099,-37.625074,145.216671
HURSTBRIDGE,3099,-37.640166,145.192477
NUTFIELD,3099,-37.610518,145.173559
STRATHEWEN,3099,-37.53633,145.273454
COTHAM,3101,-37.808497,145.044922
KEW,3101,-37.797982,145.053727
KEW EAST,3102,-37.796246,145.049017
BALWYN,3103,-37.809701,145.082303
BALWYN EAST,3103,-37.807312,145.096698
BALWYN NORTH,3104,-37.792835,145.071727
GREYTHORN,3104,-37.796947,145.098434
BULLEEN,3105,-37.768554,145.079543
TEMPLESTOWE,3106,-37.768882,145.117873
TEMPLESTOWE LOWER,3107,-37.7563,145.102997
DONCASTER,3108,-37.783031,145.122517
DONCASTER EAST,3109,-37.811994,145.19474
DONCASTER HEIGHTS,3109,-37.788827,145.159247
THE PINES,3109,-37.757762,145.169626
DONVALE,3111,-38.183899,144.468019
NORTH WARRANDYTE,3113,-37.731758,145.221282
WARRANDYTE,3113,-37.736915,145.22314
PARK ORCHARDS,3114,-37.778442,145.214586
WONGA PARK,3115,-37.738666,145.270483
CHIRNSIDE PARK,3116,-37.750325,145.326463
BURNLEY,3121,-37.826869,145.007098
BURNLEY NORTH,3121,-37.829382,145.007165
CREMORNE,3121,-37.829719,144.990346
RICHMOND,3121,-37.818587,144.999181
RICHMOND EAST,3121,-37.826421,144.996431
RICHMOND NORTH,3121,-37.816323,145.011044
RICHMOND SOUTH,3121,-37.814951,144.991415
AUBURN SOUTH,3122,-37.842105,145.045951
HAWTHORN,3122,-37.834855,145.052097
HAWTHORN NORTH,3122,-37.828845,145.007261
HAWTHORN WEST,3122,-37.819687,145.017455
AUBURN,3123,-37.832121,145.044832
HAWTHORN EAST,3123,-37.782254,145.001811
CAMBERWELL,3124,-37.824818,145.057957
CAMBERWELL NORTH,3124,-37.825705,145.068352
CAMBERWELL SOUTH,3124,-37.825705,145.068352
CAMBERWELL WEST,3124,-37.840088,145.093634
HARTWELL,3124,-37.843985,145.075562
MIDDLE CAMBERWELL,3124,-37.844,145.056955
BENNETTSWOOD,3125,-37.844825,145.115681
BURWOOD,3125,-37.852805,145.151909
SURREY HILLS SOUTH,3125,-37.835047,145.096407
CAMBERWELL EAST,3126,-37.840195,145.094524
CANTERBURY,3126,-37.824249,145.073114
MONT ALBERT,3127,-37.821232,145.104996
SURREY HILLS,3127,-37.825077,145.097412
SURREY HILLS NORTH,3127,-37.834288,145.096516
BOX HILL,3128,-37.817455,145.119314
BOX HILL CENTRAL,3128,-37.819107,145.121273
BOX HILL SOUTH,3128,-37.828744,145.121843
HOUSTON,3128,-37.844706,145.130113
WATTLE PARK,3128,-37.839076,145.104165
BOX HILL NORTH,3129,-37.801761,145.126869
KERRIMUIR,3129,-37.805767,145.136413
MONT ALBERT NORTH,3129,-37.807247,145.11205
BLACKBURN,3130,-37.819374,145.153852
BLACKBURN NORTH,3130,-37.810403,145.1521
BLACKBURN SOUTH,3130,-37.831666,145.146719
LABURNUM,3130,-37.821142,145.145303
BRENTFORD SQUARE,3131,-37.837379,145.183948
FOREST HILL,3131,-37.834099,145.166527
NUNAWADING,3131,-37.820037,145.175726
MITCHAM,3132,-37.816878,145.193712
MITCHAM NORTH,3132,-37.837478,145.170024
RANGEVIEW,3132,-37.805715,145.200802
VERMONT,3133,-37.836235,145.194651
VERMONT SOUTH,3133,-37.856647,145.183576
RINGWOOD,3134,-37.81402,145.227362
RINGWOOD NORTH,3134,-37.787064,145.2356
WARRANDYTE SOUTH,3134,-37.759339,145.233973
WARRANWOOD,3134,-37.774017,145.2483
BEDFORD ROAD,3135,-37.820951,145.246663
HEATHMONT,3135,-37.830334,145.244356
RINGWOOD EAST,3135,-37.812999,145.247551
CROYDON,3136,-37.798729,145.280685
CROYDON HILLS,3136,-37.774437,145.27557
CROYDON NORTH,3136,-37.770695,145.294691
CROYDON SOUTH,3136,-37.811967,145.269481
KILSYTH,3137,-37.802304,145.312198
KILSYTH SOUTH,3137,-37.829539,145.302768
MOOROOLBARK,3138,-37.774337,145.329954
BEENAK,3139,-37.795679,145.538569
DON VALLEY,3139,-37.75689,145.587606
HODDLES CREEK,3139,-37.828887,145.597894
LAUNCHING PLACE,3139,-37.780668,145.566625
SEVILLE,3139,-37.777197,145.460734
SEVILLE EAST,3139,-37.775456,145.495905
WANDIN EAST,3139,-37.815707,145.46037
WANDIN NORTH,3139,-37.771838,145.414182
WOORI YALLOCK,3139,-37.780019,145.530363
YELLINGBO,3139,-37.813485,145.508258
LILYDALE,3140,-37.755519,145.347707
CHAPEL STREET NORTH,3141,-36.990185,144.063338
SOUTH YARRA,3141,-37.837883,144.991123
HAWKSBURN,3142,-37.842378,145.001779
TOORAK,3142,-37.84216,145.017966
ARMADALE,3143,-37.85934,145.018505
ARMADALE NORTH,3143,-37.828845,145.007261
KOOYONG,3144,-37.840702,145.032101
MALVERN,3144,-37.861427,145.028508
MALVERN NORTH,3144,-37.856852,145.036518
CAULFIELD EAST,3145,-37.875412,145.041976
CENTRAL PARK,3145,-37.866895,145.048737
DARLING,3145,-37.877328,145.059305
MALVERN EAST,3145,-37.87837,145.067892
GLEN IRIS,3146,-37.854687,145.067215
ASHBURTON,3147,-37.863393,145.07942
ASHWOOD,3147,-37.864686,145.093061
CHADSTONE,3148,-37.886372,145.082527
CHADSTONE CENTRE,3148,-37.886372,145.082527
HOLMESGLEN,3148,-37.874223,145.091587
MOUNT WAVERLEY,3149,-37.875273,145.128398
PINEWOOD,3149,-37.891595,145.143314
SYNDAL,3149,-37.87947,145.143233
GLEN WAVERLEY,3150,-37.877631,145.166222
WHEELERS HILL,3150,-37.909349,145.188659
BURWOOD EAST,3151,-37.858352,145.138553
BURWOOD HEIGHTS,3151,-37.852535,145.150335
KNOX CITY CENTRE,3152,-37.869224,145.241382
WANTIRNA,3152,-37.847915,145.228757
WANTIRNA SOUTH,3152,-37.868979,145.235211
BAYSWATER,3153,-37.84126,145.266725
BAYSWATER NORTH,3153,-37.8303,145.275095
THE BASIN,3154,-37.851467,145.307133
BORONIA,3155,-37.861504,145.275762
FERNTREE GULLY,3156,-37.883019,145.295404
LYSTERFIELD,3156,-37.926533,145.303402
LYSTERFIELD SOUTH,3156,-37.927092,145.291015
MOUNTAIN GATE,3156,-37.890107,145.273576
UPPER FERNTREE GULLY,3156,-37.893513,145.310777
UPWEY,3158,-37.903672,145.33131
MENZIES CREEK,3159,-37.921323,145.403546
SELBY,3159,-37.915182,145.372016
BELGRAVE,3160,-37.908422,145.355075
BELGRAVE HEIGHTS,3160,-37.926012,145.352597
BELGRAVE SOUTH,3160,-37.941795,145.356068
TECOMA,3160,-37.906626,145.343987
CAULFIELD JUNCTION,3161,-38.033451,145.309748
CAULFIELD NORTH,3161,-37.901678,145.02357
CAULFIELD,3162,-37.880479,145.026806
CAULFIELD SOUTH,3162,-37.886903,145.021979
HOPETOUN GARDENS,3162,-37.886719,145.010619
CARNEGIE,3163,-37.889336,145.058121
GLEN HUNTLY,3163,-37.889239,145.040629
MURRUMBEENA,3163,-37.89069,145.067589
DANDENONG SOUTH,3164,-38.02243,145.23738
BENTLEIGH EAST,3165,-37.927402,145.059412
COATESVILLE,3165,-37.92075,145.072839
HUGHESDALE,3166,-37.895763,145.076545
HUNTINGDALE,3166,-37.909347,145.103841
OAKLEIGH,3166,-37.899854,145.087116
OAKLEIGH EAST,3166,-37.900071,145.105574
OAKLEIGH SOUTH,3167,-37.926986,145.0964
CLAYTON,3168,-37.925488,145.119662
NOTTING HILL,3168,-37.901596,145.145776
CLARINDA,3169,-37.941228,145.10244
CLAYTON SOUTH,3169,-37.939215,145.126625
MULGRAVE,3170,-37.869611,145.102866
WAVERLEY GARDENS,3170,-37.92246,145.189181
SANDOWN VILLAGE,3171,-37.950802,145.15696
SPRINGVALE,3171,-37.97103,145.148499
DINGLEY VILLAGE,3172,-37.973323,145.119941
SPRINGVALE SOUTH,3172,-37.97103,145.148499
KEYSBOROUGH,3173,-37.989707,145.149037
NOBLE PARK,3174,-37.967254,145.176167
NOBLE PARK EAST,3174,-37.94488,145.17965
NOBLE PARK NORTH,3174,-37.9547,145.192117
BANGHOLME,3175,-38.033107,145.179482
DANDENONG,3175,-37.987271,145.214317
DANDENONG EAST,3175,-38.13467,145.129955
DANDENONG NORTH,3175,-37.965724,145.205645
DANDENONG SOUTH,3175,-38.034031,145.201711
DUNEARN,3175,-37.967601,145.202509
DOVETON,3177,-37.995245,145.240156
EUMEMMERRING,3177,-37.997711,145.250273
ROWVILLE,3178,-37.928005,145.235811
SCORESBY,3179,-37.864883,145.26427
KNOXFIELD,3180,-37.888895,145.248383
PRAHRAN,3181,-37.849577,144.993714
PRAHRAN EAST,3181,-37.855396,145.039566
WINDSOR,3181,-37.856159,144.9922
ST KILDA,3182,-37.867573,144.978814
ST KILDA WEST,3182,-37.860901,144.972523
BALACLAVA,3183,-37.869023,144.995478
ST KILDA EAST,3183,-37.866458,145.000047
BRIGHTON ROAD,3184,-37.882825,144.996354
ELWOOD,3184,-37.888121,144.985026
ELSTERNWICK,3185,-37.884724,145.004153
GARDENVALE,3185,-37.896915,145.005249
RIPPONLEA,3185,-37.876692,144.996194
BRIGHTON,3186,-37.913149,144.991682
BRIGHTON NORTH,3186,-37.903864,145.001899
DENDY,3186,-37.919885,144.996826
BRIGHTON EAST,3187,-37.904879,145.002603
NORTH ROAD,3187,-37.90106,145.01669
HAMPTON EAST,3188,-37.933603,145.034175
HAMPTON NORTH,3188,-37.89802,144.991601
MOORABBIN,3189,-37.934352,145.036735
WISHART,3189,-38.61358,145.581353
HIGHETT,3190,-37.947848,145.034294
SANDRINGHAM,3191,-37.952493,145.012316
CHELTENHAM,3192,-37.96451,145.055873
CHELTENHAM EAST,3192,-37.965351,145.068392
CHELTENHAM NORTH,3192,-37.930579,145.033786
SOUTHLAND CENTRE,3192,-37.958621,145.052468
BEAUMARIS,3193,-37.986285,145.032876
BLACK ROCK,3193,-37.973503,145.01658
BLACK ROCK NORTH,3193,-37.985535,145.034742
CROMER,3193,-37.98452,145.0451
MENTONE,3194,-37.982859,145.0649
MENTONE EAST,3194,-37.986195,145.03462
MOORABBIN AIRPORT,3194,-37.977934,145.09892
ASPENDALE,3195,-38.026479,145.101908
ASPENDALE GARDENS,3195,-38.023456,145.118374
BRAESIDE,3195,-38.008295,145.112478
MORDIALLOC,3195,-38.007154,145.086849
PARKDALE,3195,-37.992659,145.075479
WATERWAYS,3195,-38.008051,145.110473
BONBEACH,3196,-38.062472,145.119404
CHELSEA,3196,-38.052346,145.115941
CHELSEA HEIGHTS,3196,-38.045473,145.135901
EDITHVALE,3196,-38.037415,145.107846
CARRUM,3197,-38.076364,145.123205
PATTERSON LAKES,3197,-38.067368,145.144762
BELVEDERE PARK,3198,-38.10667,145.158496
SEAFORD,3198,-38.110191,145.142512
FRANKSTON,3199,-38.145001,145.122477
FRANKSTON EAST,3199,-38.146186,145.145408
FRANKSTON HEIGHTS,3199,-38.126908,145.136323
FRANKSTON SOUTH,3199,-38.156538,145.123524
KARINGAL,3199,-38.143729,145.160676
KARINGAL CENTRE,3199,-38.143729,145.160676
FRANKSTON NORTH,3200,-38.165002,145.188595
PINES FOREST,3200,-38.122727,145.151093
CARRUM DOWNS,3201,-38.090783,145.191719
HEATHERTON,3202,-37.969954,145.214164
BENTLEIGH,3204,-37.918057,145.035444
MCKINNON,3204,-37.910967,145.037483
ORMOND,3204,-37.904059,145.040899
PATTERSON,3204,-37.925967,145.038194
SOUTH MELBOURNE,3205,-37.93291,145.033718
ALBERT PARK,3206,-37.840705,144.95571
MIDDLE PARK,3206,-37.849721,144.965136
GARDEN CITY,3207,-37.829244,144.956207
PORT MELBOURNE,3207,-37.975682,145.030468
LITTLE RIVER,3211,-37.971627,144.526585
LARA,3212,-38.022416,144.407891
POINT WILSON,3212,-38.086796,144.506744
CORIO,3214,-38.074162,144.358659
NORLANE,3214,-38.099498,144.360982
NORTH SHORE,3214,-38.0993,144.371887
BELL PARK,3215,-38.113738,144.330983
BELL POST HILL,3215,-38.097317,144.323541
DRUMCONDRA,3215,-38.132518,144.351714
GEELONG NORTH,3215,-38.110822,144.343406
HAMLYN HEIGHTS,3215,-38.121956,144.328051
NORTH GEELONG,3215,-38.110822,144.343406
RIPPLESIDE,3215,-38.128049,144.355394
BELMONT,3216,-38.175587,144.342666
FRESHWATER CREEK,3216,-38.284774,144.269652
GROVEDALE,3216,-38.200538,144.323683
GROVEDALE EAST,3216,-38.208841,144.328038
HIGHTON,3216,-38.170938,144.31905
MOUNT DUNEED,3216,-38.24927,144.338652
WANDANA HEIGHTS,3216,-38.169419,144.303375
WAURN PONDS,3216,-38.214211,144.292324
DEAKIN UNIVERSITY,3217,-38.198946,144.297736
GEELONG WEST,3218,-38.142148,144.348006
HERNE HILL,3218,-38.133564,144.331213
MANIFOLD HEIGHTS,3218,-38.139542,144.330072
BREAKWATER,3219,-38.180291,144.382352
EAST GEELONG,3219,-38.162171,144.378088
NEWCOMB,3219,-38.169089,144.387388
ST ALBANS PARK,3219,-38.192769,144.387321
THOMSON,3219,-38.170044,144.380797
WHITTINGTON,3219,-38.178536,144.389963
BAREENA,3220,-38.181164,145.109544
GEELONG,3220,-38.14729,144.360735
NEWTOWN,3220,-38.153717,144.334977
SOUTH GEELONG,3220,-38.161708,144.354122
ANAKIE,3221,-37.896843,144.253862
BARRABOOL,3221,-38.16997,144.226425
BATESFORD,3221,-38.088082,144.274343
BELLARINE,3221,-38.130331,144.621908
CERES,3221,-38.172189,144.25895
FYANSFORD,3221,-38.14232,144.308137
GNARWARRE,3221,-38.168643,144.160558
GREY RIVER,3221,-38.683577,143.839267
KENNETT RIVER,3221,-38.666687,143.86199
LOVELY BANKS,3221,-38.07927,144.318144
MOOLAP,3221,-38.173006,144.421246
MOORABOOL,3221,-38.057464,144.278005
MURGHEBOLUC,3221,-38.106304,144.136517
SEPARATION CREEK,3221,-38.633456,143.893806
STAUGHTON VALE,3221,-37.854746,144.28058
STONEHAVEN,3221,-38.126164,144.242063
SUGARLOAF,3221,-38.696665,143.79923
WALLINGTON,3221,-38.214837,144.520638
WONGARRA,3221,-38.704967,143.767791
WYE RIVER,3221,-38.635001,143.890896
CLIFTON SPRINGS,3222,-38.15748,144.561541
CURLEWIS,3222,-38.184438,144.512272
DRYSDALE,3222,-38.172318,144.570987
MANNERIM,3222,-38.2197,144.591314
MARCUS HILL,3222,-38.260117,144.560583
INDENTED HEAD,3223,-38.139121,144.711239
PORTARLINGTON,3223,-38.114836,144.651414
ST LEONARDS,3223,-38.171243,144.717383
LEOPOLD,3224,-38.183967,144.459914
POINT LONSDALE,3225,-38.286113,144.614489
QUEENSCLIFF,3225,-38.267113,144.661329
SWAN BAY,3225,-38.252385,144.616144
SWAN ISLAND,3225,-38.249982,144.688434
OCEAN GROVE,3226,-38.270293,144.540778
BARWON HEADS,3227,-38.281078,144.49179
BREAMLEA,3227,-38.293801,144.395262
CONNEWARRE,3227,-38.250963,144.387919
BELLBRAE,3228,-38.329558,144.262559
BELLS BEACH,3228,-38.367595,144.28172
JAN JUC,3228,-38.344147,144.303646
TORQUAY,3228,-38.332818,144.32389
ANGLESEA,3230,-38.405129,144.189268
AIREYS INLET,3231,-38.459435,144.106892
BIG HILL,3231,-38.488885,144.023772
EASTERN VIEW,3231,-38.47118,144.047598
FAIRHAVEN,3231,-38.468132,144.08437
MOGGS CREEK,3231,-38.468585,144.06487
LORNE,3232,-38.518801,143.99579
APOLLO BAY,3233,-38.748434,143.670432
CAPE OTWAY,3233,-38.852976,143.522782
MARENGO,3233,-38.76996,143.664514
PETTICOAT CREEK,3233,-38.718949,143.725959
SKENES CREEK,3233,-38.724133,143.711487
SKENES CREEK NORTH,3233,-38.686026,143.715192
BENWERRIN,3235,-38.472753,143.93252
BOONAH,3235,-38.419956,143.948435
DEANS MARSH,3235,-38.39667,143.886147
PENNYROYAL,3235,-38.422717,143.836555
FORREST,3236,-38.51882,143.71457
MOUNT SABINE,3236,-38.62353,143.725095
AIRE VALLEY,3237,-38.693169,143.564483
BEECH FOREST,3237,-38.632695,143.561186
GELLIBRAND LOWER,3237,-38.72801,143.252192
WATTLE HILL,3237,-38.747885,143.257897
WEEAPROINAH,3237,-38.633818,143.503912
WYELANGTA,3237,-38.661019,143.454743
YUULONG,3237,-38.725903,143.313646
GLENAIRE,3238,-38.781787,143.429978
HORDERN VALE,3238,-38.772927,143.509048
JOHANNA,3238,-38.757603,143.380466
LAVERS HILL,3238,-38.679082,143.392452
CARLISLE RIVER,3239,-38.556481,143.398828
CHAPPLE VALE,3239,-38.639761,143.309752
GELLIBRAND,3239,-38.525021,143.540186
KENNEDYS CREEK,3239,-38.5969,143.248332
BUCKLEY,3240,-38.216777,144.076977
GHERANG,3240,-38.240175,144.0497
MODEWARRE,3240,-38.272912,144.170663
MORIAC,3240,-38.241495,144.172731
MOUNT MORIAC,3240,-38.212726,144.190017
PARAPARAP,3240,-38.292979,144.193897
BAMBRA,3241,-38.366594,143.946392
OMBERSLEY,3241,-38.185619,143.846877
WENSLEYDALE,3241,-38.345372,144.040955
WINCHELSEA,3241,-38.243461,143.989297
WINCHELSEA SOUTH,3241,-38.339586,143.966264
WURDIBOLUC,3241,-38.293781,144.02637
BIRREGURRA,3242,-38.314855,143.789367
BARWON DOWNS,3243,-38.468578,143.758408
GERANGAMETE,3243,-38.479503,143.735576
MURROON,3243,-38.426626,143.826576
WARNCOORT,3243,-38.312758,143.721438
WHOOREL,3243,-38.380379,143.822207
ALVIE,3249,-38.244321,143.481901
BALINTORE,3249,-38.274944,143.585061
BARONGAROOK,3249,-38.413808,143.583605
BARONGAROOK WEST,3249,-38.404379,143.547697
BARRAMUNGA,3249,-38.56935,143.692959
CORAGULAC,3249,-38.254894,143.536852
CORUNNUN,3249,-38.280625,143.492726
DREEITE,3249,-38.181027,143.516602
DREEITE SOUTH,3249,-38.19734,143.477068
IRREWARRA,3249,-38.316082,143.647693
IRREWILLIPE,3249,-38.405265,143.401036
IRREWILLIPE EAST,3249,-38.434643,143.483722
KAWARREN,3249,-38.482629,143.580706
LARPENT,3249,-38.359447,143.501999
NALANGIL,3249,-38.317258,143.461562
ONDIT,3249,-38.250573,143.637097
PIRRON YALLOCK,3249,-38.351075,143.436796
POMBORNEIT EAST,3249,-38.294074,143.355451
SWAN MARSH,3249,-38.372377,143.385865
TANYBRYN,3249,-38.654956,143.709748
WARRION,3249,-38.215408,143.582584
WOOL WOOL,3249,-38.212309,143.434892
YEO,3249,-38.388318,143.634765
YEODENE,3249,-38.397487,143.693909
COLAC,3250,-38.339298,143.58166
COLAC EAST,3250,-38.334962,143.610172
COLAC WEST,3250,-38.33741,143.571934
ELLIMINYT,3250,-38.367034,143.58264
BEEAC,3251,-38.193925,143.640459
CUNDARE NORTH,3251,-38.110935,143.565124
EURACK,3251,-38.145536,143.710447
WEERING,3251,-38.094341,143.690365
COROROOKE,3254,-38.296263,143.522505
BOOKAAR,3260,-38.134947,143.102803
BOSTOCKS CREEK,3260,-38.296169,143.115205
BUNGADOR,3260,-38.438373,143.328801
CAMPERDOWN,3260,-38.232708,143.146911
CARPENDEIT,3260,-38.380341,143.258021
CHOCOLYN,3260,-38.195394,143.213576
GNOTUK,3260,-38.207809,143.104686
KARIAH,3260,-38.147055,143.22677
KOALLAH,3260,-38.293712,143.241732
LESLIE MANOR,3260,-38.133271,143.356149
POMBORNEIT,3260,-38.29677,143.298926
POMBORNEIT NORTH,3260,-38.22066,143.355624
SKIBO,3260,-38.199825,143.131904
SOUTH PURRUMBETE,3260,-38.367171,143.214364
STONYFORD,3260,-38.325844,143.340311
TANDAROOK,3260,-38.329228,143.177254
TESBURY,3260,-38.291281,143.181217
WEERITE,3260,-38.255408,143.241487
TERANG,3264,-38.236207,142.911483
BOORCAN,3265,-38.21456,143.013298
CUDGEE,3265,-38.344819,142.652003
DIXIE,3265,-38.299183,142.928662
ECKLIN SOUTH,3265,-38.393462,142.910041
ELLERSLIE,3265,-38.168548,142.687023
FRAMLINGHAM,3265,-38.241844,142.711734
FRAMLINGHAM EAST,3265,-38.20016,142.69827
GARVOC,3265,-38.298057,142.80421
GLENORMISTON NORTH,3265,-38.145768,142.966197
GLENORMISTON SOUTH,3265,-38.160502,142.970512
KOLORA,3265,-38.136481,142.882808
LAANG,3265,-38.354958,142.814975
NOORAT,3265,-38.191027,142.929541
NOORAT EAST,3265,-38.20797,142.973112
PANMURE,3265,-38.337534,142.725221
TAROON,3265,-38.34207,142.872698
THE SISTERS,3265,-38.198076,142.769514
BULLAHARRE,3266,-38.343488,143.141647
COBDEN,3266,-38.328583,143.077199
COBRICO,3266,-38.29128,143.017563
ELINGAMITE,3266,-38.366951,143.0211
ELINGAMITE NORTH,3266,-38.346708,143.014801
GLENFYNE,3266,-38.401647,142.987414
JANCOURT,3266,-38.368137,143.097811
JANCOURT EAST,3266,-38.38846,143.146555
NAROGHID,3266,-38.260257,143.056853
SIMPSON,3266,-38.496167,143.210488
SCOTTS CREEK,3267,-38.448909,143.10623
AYRFORD,3268,-38.415663,142.85945
BRUCKNELL,3268,-38.466719,142.917465
COORIEMUNGLE,3268,-38.541094,143.078426
COWLEYS CREEK,3268,-38.483271,143.054403
CURDIES RIVER,3268,-38.457871,142.956959
CURDIEVALE,3268,-38.505198,142.914428
HEYTESBURY LOWER,3268,-38.564595,142.921624
NEWFIELD,3268,-38.559974,143.010759
NIRRANDA,3268,-38.500415,142.760581
NIRRANDA EAST,3268,-38.47906,142.847696
NIRRANDA SOUTH,3268,-38.53066,142.793949
NULLAWARRE,3268,-38.469347,142.749913
PAARATTE,3268,-38.54149,142.974983
THE COVE,3268,-38.486643,142.70914
TIMBOON,3268,-38.484442,142.981066
TIMBOON WEST,3268,-38.505198,142.914428
PORT CAMPBELL,3269,-38.619083,142.996136
PRINCETOWN,3269,-38.690367,143.156055
WAARRE,3269,-38.575231,143.050126
PETERBOROUGH,3270,-38.579938,142.857049
DARLINGTON,3271,-37.998527,143.051384
DUNDONNELL,3271,-37.890316,142.977335
PURA PURA,3271,-37.821152,143.081778
MORTLAKE,3272,-38.081236,142.807986
WOORNDOO,3272,-37.876231,142.794858
HEXHAM,3273,-38.057308,142.607374
CARAMUT,3274,-37.912068,142.523202
MAILORS FLAT,3275,-38.301794,142.457611
MINJAH,3276,-38.035006,142.441935
WOOLSTHORPE,3276,-38.16607,142.39753
ALLANSFORD,3277,-38.386474,142.590674
MEPUNGA,3277,-38.433683,142.660911
MEPUNGA EAST,3277,-38.44303,142.717555
MEPUNGA WEST,3277,-38.421839,142.643932
NARINGAL,3277,-38.395724,142.689407
NARINGAL EAST,3277,-38.408509,142.798682
PURNIM,3278,-38.278013,142.624719
PURNIM WEST,3278,-38.300776,142.559686
BALLANGEICH,3279,-38.214555,142.657483
WANGOOM,3279,-38.329882,142.578578
DENNINGTON,3280,-38.35811,142.441982
WARRNAMBOOL,3280,-38.383313,142.482959
WARRNAMBOOL EAST,3280,-38.390915,142.497056
WARRNAMBOOL WEST,3280,-38.37766,142.457911
BUSHFIELD,3281,-38.325329,142.505522
GRASSMERE,3281,-38.286544,142.524682
WINSLOW,3281,-38.244448,142.458116
WOODFORD,3281,-38.313439,142.463881
ILLOWA,3282,-38.32991,142.411507
KOROIT,3282,-38.292155,142.367405
CROSSLEY,3283,-38.313434,142.328761
KILLARNEY,3283,-38.338738,142.329837
KIRKSTALL,3283,-38.270741,142.3132
SOUTHERN CROSS,3283,-38.298693,142.428893
TARRONE,3283,-38.217637,142.192786
TOWER HILL,3283,-38.33373,142.356412
WARRONG,3283,-38.193076,142.31918
WILLATOOK,3283,-38.152712,142.255157
YANGERY,3283,-38.3144,142.428986
YARPTURK,3283,-38.283548,142.432861
ORFORD,3284,-38.214987,142.153594
PORT FAIRY,3284,-38.385516,142.236711
CODRINGTON,3285,-38.272587,141.973181
NARRAWONG,3285,-38.252371,141.717039
ROSEBROOK,3285,-38.351931,142.256753
ST HELENS,3285,-38.244455,142.0613
TOOLONG,3285,-38.318384,142.227517
TYRENDARRA,3285,-38.218374,141.780986
TYRENDARRA EAST,3285,-38.245122,141.87849
YAMBUK,3285,-38.315793,142.065127
CONDAH SWAMP,3286,-37.972228,141.833705
KNEBSWORTH,3286,-38.000472,141.870835
MACARTHUR,3286,-38.034053,142.001047
RIPPONHURST,3286,-37.983824,142.108563
WARRABKOOK,3286,-37.979189,142.044275
HAWKESDALE,3287,-38.106999,142.322188
MINHAMITE,3287,-37.991565,142.327342
GAZETTE,3289,-37.897958,142.174884
GERRIGERRUP,3289,-38.007342,142.181224
PENSHURST,3289,-37.87522,142.29024
PURDEET,3289,-37.923773,142.378199
TABOR,3289,-37.804364,142.182405
NELSON,3292,-38.04659,141.006938
GLENTHOMPSON,3293,-37.636489,142.545707
NAREEB,3293,-37.858467,142.565483
NARRAPUMELAP SOUTH,3293,-37.75697,142.641677
DUNKELD,3294,-37.649713,142.344662
KARABEAL,3294,-37.602979,142.21249
MIRRANATWA,3294,-37.405327,142.395682
MOUTAJUP,3294,-37.665193,142.250571
VICTORIA POINT,3294,-37.525167,142.205291
VICTORIA VALLEY,3294,-37.498531,142.333604
WOODHOUSE,3294,-37.801065,142.45467
BYADUK NORTH,3300,-37.880712,141.960066
HAMILTON,3300,-37.743025,142.020065
BOCHARA,3301,-37.704033,141.927084
BROADWATER,3301,-38.107562,142.051206
BUCKLEY SWAMP,3301,-37.849978,142.057186
BYADUK,3301,-37.952429,141.987783
CROXTON EAST,3301,-37.792699,142.261056
HENSLEY PARK,3301,-37.602933,142.057626
MORGIANA,3301,-37.733163,141.849073
MOUNT NAPIER,3301,-37.89663,142.063516
STRATHKELLAR,3301,-37.717544,142.126345
TAHARA,3301,-37.742435,141.702187
TARRINGTON,3301,-37.767146,142.09796
WANNON,3301,-37.671854,141.843327
WARRAYURE,3301,-37.696837,142.205871
YATCHAW,3301,-37.816126,142.099016
YULECART,3301,-37.748521,141.936368
BRANXHOLME,3302,-37.856656,141.794565
GRASSDALE,3302,-37.792645,141.646446
BREAKAWAY CREEK,3303,-38.03119,141.814595
CONDAH,3303,-37.970084,141.732922
HOTSPUR,3303,-37.926306,141.561279
LAKE CONDAH,3303,-38.093159,141.794924
WALLACEDALE,3303,-37.933651,141.810169
BESSIEBELLE,3304,-38.146567,141.966132
DARTMOOR,3304,-37.922543,141.27543
DRIK DRIK,3304,-38.001508,141.286526
DRUMBORG,3304,-38.091837,141.597511
GREENWALD,3304,-37.953544,141.405571
HEYWOOD,3304,-38.131028,141.630332
HOMERTON,3304,-38.137283,141.759184
LYONS,3304,-38.005981,141.503684
MILLTOWN,3304,-38.043676,141.698339
MUMBANNAR,3304,-37.926374,141.186841
MYAMYN,3304,-38.006326,141.720263
WINNAP,3304,-37.944963,141.31758
ALLESTREE,3305,-38.274855,141.646078
BOLWARRA,3305,-38.281821,141.614962
CAPE BRIDGEWATER,3305,-38.370774,141.401813
CASHMORE,3305,-38.311967,141.481232
DUTTON WAY,3305,-38.313173,141.594139
GORAE,3305,-38.240845,141.55627
GORAE WEST,3305,-38.259661,141.500413
HEATHMERE,3305,-38.222332,141.622619
MOUNT RICHMOND,3305,-38.198109,141.358815
PORTLAND,3305,-38.351032,141.587701
PORTLAND NORTH,3305,-38.314243,141.59424
PORTLAND WEST,3305,-38.342188,141.569468
DIGBY,3309,-37.794364,141.500674
MERINO,3310,-37.720455,141.548293
TAHARA WEST,3310,-37.727284,141.639652
CASTERTON,3311,-37.584211,141.405944
CORNDALE,3311,-37.531494,141.289748
BAHGALLAH,3312,-37.6391,141.365747
BRIMBOAL,3312,-37.404872,141.424838
CARAPOOK,3312,-37.551741,141.541128
CHETWYND,3312,-37.27944,141.417184
DERGHOLM,3312,-37.370335,141.215072
DORODONG,3312,-37.345174,141.031936
DUNROBIN,3312,-37.532697,141.382928
HENTY,3312,-37.660292,141.51291
KILLARA,3312,-37.757082,141.407391
LAKE MUNDI,3312,-37.563526,141.059286
LINDSAY,3312,-37.602358,141.067756
NANGEELA,3312,-37.486133,141.361871
POOLAIJELO,3312,-37.212636,141.100756
POWERS CREEK,3312,-37.196196,141.292351
SANDFORD,3312,-37.610974,141.44304
STRATHDOWNIE,3312,-37.727419,141.14483
WANDO BRIDGE,3312,-37.442491,141.423158
WANDO VALE,3312,-37.517954,141.448106
WARROCK,3312,-37.430567,141.290496
BULART,3314,-37.586718,141.935665
CAVENDISH,3314,-37.526205,142.039943
GLENISLA,3314,-37.243087,142.194121
GRAMPIANS,3314,-37.316714,142.484076
MOORALLA,3314,-37.398976,142.099717
WOOHLPOOER,3314,-37.371558,142.160996
BRIT BRIT,3315,-37.441278,141.758617
CLOVER FLAT,3315,-37.599933,141.558767
COLERAINE,3315,-37.598268,141.691125
COOJAR,3315,-37.348173,141.685584
CULLA,3315,-37.268488,141.648637
GRINGEGALGONA,3315,-37.415905,141.808405
GRITJURK,3315,-37.542228,141.78656
HILGAY,3315,-37.620925,141.628411
KONONGWOOTONG,3315,-37.531865,141.681426
MELVILLE FOREST,3315,-37.513021,141.826377
MUNTHAM,3315,-37.560588,141.575279
NAREEN,3315,-37.371173,141.565849
PASCHENDALE,3315,-37.659196,141.594212
TAHARA BRIDGE,3315,-37.6881,141.648325
TARRAYOUKYAN,3315,-37.327118,141.570754
TARRENLEA,3315,-37.676203,141.741339
WOOTONG VALE,3315,-37.531576,141.715919
HARROW,3317,-37.119835,141.600473
CHARAM,3318,-36.986424,141.510896
CONNEWIRRICOO,3318,-37.191654,141.45156
EDENHOPE,3318,-37.036143,141.296235
KADNOOK,3318,-37.14572,141.385313
LANGKOOP,3318,-37.091858,141.062048
PATYAH,3318,-36.896736,141.249539
ULLSWATER,3318,-36.928902,141.395927
APSLEY,3319,-36.967557,141.080748
BENAYEO,3319,-36.843195,141.045845
BRINGALBERT,3319,-36.843902,141.155059
HESSE,3321,-38.111995,143.855664
INVERLEIGH,3321,-38.100967,144.058343
WINGEEL,3321,-38.06397,143.857655
CRESSY,3322,-38.028752,143.643643
BERRYBANK,3323,-37.991587,143.486027
DUVERNEY,3323,-38.014259,143.570355
FOXHOW,3323,-38.048885,143.461877
LISMORE,3324,-37.953552,143.34368
MINGAY,3324,-37.853522,143.320127
MOUNT BUTE,3324,-37.879341,143.451114
DERRINALLUM,3325,-37.948485,143.219987
LARRALEA,3325,-38.021889,143.239049
VITE VITE,3325,-37.816618,143.157936
VITE VITE NORTH,3325,-37.792923,143.208666
TEESDALE,3328,-38.039758,144.048285
BARUNAH PARK,3329,-38.02107,143.856658
SHELFORD,3329,-38.013703,143.976087
ROKEWOOD,3330,-37.844281,143.677351
BANNOCKBURN,3331,-38.046528,144.171067
GHERINGHAP,3331,-38.07663,144.233865
MAUDE,3331,-37.947695,144.168659
RUSSELLS BRIDGE,3331,-38.016611,144.181789
SHE OAKS,3331,-37.899687,144.133464
STEIGLITZ,3331,-37.905086,144.187068
SUTHERLANDS CREEK,3331,-38.003845,144.217941
LETHBRIDGE,3332,-37.962809,144.139178
BAMGANIE,3333,-37.924962,144.025575
MEREDITH,3333,-37.845715,144.076801
BUNGAL,3334,-37.710436,144.094545
CARGERIE,3334,-37.804935,143.980293
ELAINE,3334,-37.77736,144.028618
MOUNT DORAN,3334,-37.72122,144.050734
PLUMPTON,3335,-37.68584,144.685449
ROCKBANK,3335,-37.729119,144.650778
KURUNJANG,3337,-37.675127,144.58855
MELTON,3337,-37.683206,144.58315
MELTON WEST,3337,-37.684849,144.560691
TOOLERN VALE,3337,-37.605843,144.589792
BROOKFIELD,3338,-37.701172,144.540792
EXFORD,3338,-37.729899,144.548212
EYNESBURY,3338,-37.790039,144.56627
MELTON SOUTH,3338,-37.704323,144.574818
BACCHUS MARSH,3340,-37.675855,144.437663
BALLIANG,3340,-37.882062,144.378684
BALLIANG EAST,3340,-37.786546,144.46028
COIMADAI,3340,-37.586714,144.458987
DARLEY,3340,-37.660314,144.441634
GLENMORE,3340,-37.713491,144.321688
HOPETOUN PARK,3340,-37.696301,144.49671
LONG FOREST,3340,-37.648056,144.505
MADDINGLEY,3340,-37.680437,144.421974
MERRIMU,3340,-37.619416,144.50635
PARWAN,3340,-37.705964,144.462452
ROWSLEY,3340,-37.723941,144.375232
DALES CREEK,3341,-37.519237,144.309955
GREENDALE,3341,-37.563196,144.305245
KOROBEIT,3341,-37.576312,144.34186
MYRNIONG,3341,-37.607752,144.318527
PENTLAND HILLS,3341,-37.643624,144.365696
BALLAN,3342,-37.60016,144.225458
BEREMBOKE,3342,-37.770748,144.217417
BLAKEVILLE,3342,-37.502683,144.203178
BUNDING,3342,-37.557953,144.190143
COLBROOK,3342,-37.53094,144.224945
DURDIDWARRAH,3342,-37.812989,144.194393
FISKVILLE,3342,-37.677991,144.227291
INGLISTON,3342,-37.64379,144.289282
MOUNT WALLACE,3342,-37.734514,144.217919
GORDON,3345,-37.594546,144.099862
ALFREDTON,3350,-37.556958,143.817225
BAKERY HILL,3350,-37.568592,143.864099
BALLARAT,3350,-37.563318,143.863715
BALLARAT CENTRAL,3350,-37.563039,143.855405
BALLARAT EAST,3350,-37.565618,143.886657
BALLARAT NORTH,3350,-37.536899,143.862448
BALLARAT WEST,3350,-37.563608,143.862054
BLACK HILL,3350,-37.546532,143.875848
BROWN HILL,3350,-37.552458,143.902041
CANADIAN,3350,-37.584072,143.883055
EUREKA,3350,-37.574981,143.868893
GOLDEN POINT,3350,-37.57075,143.864955
INVERMAY PARK,3350,-37.528996,143.862585
LAKE WENDOUREE,3350,-37.549965,143.849441
MOUNT CLEAR,3350,-37.603114,143.868659
MOUNT HELEN,3350,-37.628466,143.880285
MOUNT PLEASANT,3350,-37.581598,143.852739
NERRINA,3350,-37.53748,143.890253
NEWINGTON,3350,-37.567867,143.793037
REDAN,3350,-37.572707,143.839859
SOLDIERS HILL,3350,-37.551158,143.859744
SOVEREIGN HILL,3350,-37.579026,143.864748
BERRINGA,3351,-37.770766,143.683679
BO PEEP,3351,-37.527396,143.678614
CAPE CLEAR,3351,-37.786818,143.612778
CARNGHAM,3351,-37.576056,143.578864
CHEPSTOWE,3351,-37.584632,143.516571
HADDON,3351,-37.592314,143.719153
HAPPY VALLEY,3351,-37.719294,143.609858
HILLCREST,3351,-37.619088,143.637236
ILLABAROOK,3351,-37.826653,143.645921
LAKE BOLAC,3351,-37.712432,142.839797
MININERA,3351,-37.604862,142.959773
MOUNT EMU,3351,-37.596868,143.416319
NERRIN NERRIN,3351,-37.770863,143.017363
NEWTOWN,3351,-37.70637,143.664088
NINTINGBOOL,3351,-37.642384,143.709581
PIGGOREET,3351,-37.728419,143.644442
PITFIELD,3351,-37.811603,143.577695
ROKEWOOD JUNCTION,3351,-37.844281,143.677351
ROSS CREEK,3351,-37.628507,143.767332
SCARSDALE,3351,-37.668421,143.654685
SMYTHES CREEK,3351,-37.596827,143.768269
SMYTHESDALE,3351,-37.646169,143.683223
SNAKE VALLEY,3351,-37.612093,143.584543
SPRINGDALLAH,3351,-37.746273,143.631404
STAFFORDSHIRE REEF,3351,-37.752956,143.700798
STREATHAM,3351,-37.679137,143.058258
WALLINDUC,3351,-37.879636,143.509572
WESTMERE,3351,-37.692668,142.999465
ADDINGTON,3352,-37.384464,143.672506
BARKSTEAD,3352,-37.462409,144.085601
BLOWHARD,3352,-37.429268,143.788393
BOLWARRAH,3352,-37.513611,144.095063
BREWSTER,3352,-37.48494,143.527883
BULLAROOK,3352,-37.50866,144.004654
BUNGAREE,3352,-37.558902,143.99726
BUNKERS HILL,3352,-37.576871,143.745113
BURRUMBEET,3352,-37.473098,143.656645
CAMBRIAN HILL,3352,-37.62525,143.832618
CARDIGAN,3352,-37.526537,143.747739
CARDIGAN VILLAGE,3352,-37.524031,143.741734
CHAPEL FLAT,3352,-37.478761,143.897125
CLARENDON,3352,-37.690352,143.977725
CLARETOWN,3352,-37.515415,144.032034
CLARKES HILL,3352,-37.495739,143.973782
CORINDHAP,3352,-37.871921,143.749854
DEREEL,3352,-37.813488,143.749864
DUNNSTOWN,3352,-37.590632,143.977119
DURHAM LEAD,3352,-37.697654,143.87785
ENFIELD,3352,-37.745523,143.773881
ERCILDOUNE,3352,-37.43581,143.61408
GARIBALDI,3352,-37.726329,143.871154
GLEN PARK,3352,-37.518068,143.908716
GLENBRAE,3352,-37.350376,143.568829
GONG GONG,3352,-37.550811,143.932208
GRENVILLE,3352,-37.743019,143.840855
INVERMAY,3352,-37.520241,143.897158
LAL LAL,3352,-37.692331,144.040895
LAMPLOUGH,3352,-37.136644,143.50799
LANGI KAL KAL,3352,-37.400516,143.505961
LEARMONTH,3352,-37.420343,143.713222
LEIGH CREEK,3352,-37.559567,143.952925
LEXTON,3352,-37.275704,143.513453
MAGPIE,3352,-37.617962,143.847038
MILLBROOK,3352,-37.590237,144.056383
MINERS REST,3352,-37.484449,143.802353
MITCHELL PARK,3352,-37.509085,143.784073
MOLLONGGHIP,3352,-37.47511,144.038392
MOUNT BOLTON,3352,-37.358834,143.684003
MOUNT EGERTON,3352,-37.630149,144.105564
MOUNT MERCER,3352,-37.80564,143.9091
MOUNT MITCHELL,3352,-37.297903,143.600948
MOUNT ROWAN,3352,-37.505408,143.845131
NAPOLEONS,3352,-37.67641,143.829065
NAVIGATORS,3352,-37.624897,143.950671
POOTILLA,3352,-37.523658,143.966627
SCOTSBURN,3352,-37.670099,143.93046
SPRINGBANK,3352,-37.534236,144.073588
SULKY,3352,-37.464987,143.836332
WALLACE,3352,-37.555477,144.047668
WARRENHEIP,3352,-37.574854,143.92573
WATTLE FLAT,3352,-37.457993,143.942747
WAUBRA,3352,-37.360061,143.640151
WEATHERBOARD,3352,-37.445888,143.680675
WERNETH,3352,-37.933474,143.616585
YENDON,3352,-37.633954,143.969478
BALLARAT,3353,-37.7778,144.835743
BAKERY HILL,3354,-37.560917,143.867158
LAKE GARDENS,3355,-37.545723,143.820973
MITCHELL PARK,3355,-37.509085,143.784073
WENDOUREE,3355,-37.54022,143.831297
WENDOUREE VILLAGE,3355,-37.532908,143.824328
BONSHAW,3356,-37.591298,143.828273
DELACOMBE,3356,-37.58453,143.807662
SEBASTOPOL,3356,-37.597592,143.841026
BUNINYONG,3357,-37.648547,143.918563
LINTON,3360,-37.686374,143.562977
MANNIBADAR,3360,-37.752233,143.467636
PITTONG,3360,-37.668732,143.475816
WILLOWVALE,3360,-37.805729,143.45921
BRADVALE,3361,-37.779772,143.407202
CARRANBALLAC,3361,-37.701093,143.218205
SKIPTON,3361,-37.685939,143.365063
CRESWICK,3363,-37.424838,143.894483
CRESWICK NORTH,3363,-37.36548,143.877677
DEAN,3363,-37.4645,143.991203
GLENDARUEL,3363,-37.347345,143.722525
LANGDONS HILL,3363,-37.413218,144.068068
MOUNT BECKWORTH,3363,-37.311869,143.688092
TOURELLO,3363,-37.356793,143.808277
ALLENDALE,3364,-37.368711,143.938548
ASCOT,3364,-37.40088,143.802511
BALD HILLS,3364,-37.450713,143.839388
BLAMPIED,3364,-37.360361,144.056095
BROOMFIELD,3364,-37.387436,143.903734
CABBAGE TREE,3364,-37.278159,143.890311
CAMPBELLTOWN,3364,-37.203474,143.946436
COGHILLS CREEK,3364,-37.383521,143.757838
GLENDONNELL,3364,-37.360699,143.844507
KINGSTON,3364,-37.372652,143.954309
KOOROOCHEANG,3364,-37.285444,144.034028
LAWRENCE,3364,-37.313624,143.908197
MOUNT PROSPECT,3364,-37.40751,144.032913
NEWLYN,3364,-37.417055,143.981438
NEWLYN NORTH,3364,-37.399016,143.995952
ROCKLYN,3364,-37.430329,144.052859
SMEATON,3364,-37.312403,143.94954
SMOKEYTOWN,3364,-37.404302,143.925516
SPRINGMOUNT,3364,-37.414701,143.935411
STRATHLEA,3364,-37.139606,143.963403
WERONA,3364,-37.243658,144.024726
CLUNES,3370,-37.293942,143.787341
GLENGOWER,3370,-37.226997,143.884943
MOUNT CAMERON,3370,-37.209586,143.825148
ULLINA,3370,-37.284441,143.890428
AMHERST,3371,-37.146466,143.670166
BURNBANK,3371,-37.227531,143.577744
CARALULUP,3371,-37.205024,143.637709
DUNACH,3371,-37.219423,143.729832
EVANSFORD,3371,-37.258734,143.625242
LILLICUR,3371,-37.165285,143.554504
MOUNT GLASGOW,3371,-37.197694,143.739521
STONY CREEK,3371,-37.225719,143.683737
TALBOT,3371,-37.171463,143.698142
BEAUFORT,3373,-37.429812,143.383709
CHUTE,3373,-37.332405,143.387135
CROSS ROADS,3373,-37.546494,143.231404
LAKE GOLDSMITH,3373,-37.554684,143.36684
LAKE WONGAN,3373,-37.594156,143.13746
MAIN LEAD,3373,-37.392977,143.32985
MENA PARK,3373,-37.521118,143.463104
NERRING,3373,-37.497474,143.446479
RAGLAN,3373,-37.351713,143.330232
SHIRLEY,3373,-37.442898,143.213328
STOCKYARD HILL,3373,-37.53596,143.251325
STONELEIGH,3373,-37.585741,143.25939
TRAWALLA,3373,-37.436827,143.469053
WATERLOO,3373,-37.372434,143.414495
BALLYROGAN,3375,-37.427465,143.132372
BAYINDEEN,3375,-37.305549,143.163733
BUANGOR,3375,-37.366754,143.174831
MIDDLE CREEK,3375,-37.398313,143.23096
ARARAT,3377,-37.284301,142.928227
ARMSTRONG,3377,-37.210025,142.884986
CATHCART,3377,-37.304935,142.879648
CROWLANDS,3377,-37.149857,143.109353
DENICULL CREEK,3377,-37.349467,142.89664
DOBIE,3377,-37.311758,143.021199
DUNNEWORTHY,3377,-37.202282,143.041956
EVERSLEY,3377,-37.189662,143.178787
GREAT WESTERN,3377,-37.152658,142.855946
LANGI LOGAN,3377,-37.393824,142.924496
MAROONA,3377,-37.440606,142.859279
MOUNT COLE,3377,-37.255088,143.198377
MOUNT COLE CREEK,3377,-37.218791,143.123858
MOYSTON,3377,-37.300887,142.76704
NORVAL,3377,-37.251262,142.843173
RHYMNEY,3377,-37.218844,142.779136
ROCKY POINT,3377,-37.335958,142.854336
ROSSBRIDGE,3377,-37.498396,142.864267
WARRAK,3377,-37.265182,143.115878
TATYOON,3378,-37.529051,142.944769
YALLA-Y-POORA,3378,-37.527438,143.13232
BORNES HILL,3379,-37.534037,142.521439
CHATSWORTH,3379,-37.857749,142.649816
MAFEKING,3379,-37.378411,142.54037
STAVELY,3379,-37.58305,142.633256
WICKLIFFE,3379,-37.685137,142.708737
WILLAURA,3379,-37.540494,142.7353
WILLAURA NORTH,3379,-37.388237,142.742735
BELLELLEN,3380,-37.157329,142.699342
BRIDGE INN,3380,-37.029226,142.808498
MOKEPILLY,3380,-37.093743,142.626594
STAWELL,3380,-37.055661,142.77938
STAWELL WEST,3380,-37.023514,142.763255
WINJALLOK,3380,-36.822297,143.197839
BARKLY,3381,-36.941793,143.211642
BELLFIELD,3381,-37.228577,142.480053
BOLANGUM,3381,-36.716649,142.99812
CALLAWADDA,3381,-36.817331,142.785567
CAMPBELLS BRIDGE,3381,-36.916423,142.785635
CONCONGELLA,3381,-37.053735,142.875032
DEEP LEAD,3381,-37.009961,142.715571
FYANS CREEK,3381,-37.08344,142.565254
GERMANIA,3381,-36.976575,142.758501
GREENS CREEK,3381,-36.950991,142.936558
HALLS GAP,3381,-37.141371,142.518955
ILLAWARRA,3381,-37.053668,142.688557
JOEL JOEL,3381,-37.006333,142.990618
JOEL SOUTH,3381,-37.056742,143.049734
KANYA,3381,-36.782368,142.998913
LAKE FYANS,3381,-37.135366,142.627942
LAKE LONSDALE,3381,-37.047728,142.581813
LUBECK,3381,-36.746935,142.548741
MORRL MORRL,3381,-36.854505,142.933441
PARADISE,3381,-36.831662,143.108792
POMONAL,3381,-37.192318,142.609034
ROSTRON,3381,-36.769367,143.176161
WAL WAL,3381,-36.84136,142.598921
WALLALOO,3381,-36.7285,142.892723
WALLALOO EAST,3381,-36.781477,142.930714
FRENCHMANS,3384,-36.979212,143.198999
LANDSBOROUGH,3384,-37.004798,143.129581
LANDSBOROUGH WEST,3384,-37.012381,143.053574
NAVARRE,3384,-36.900107,143.11354
SHAYS FLAT,3384,-37.065177,143.090811
WATTLE CREEK,3384,-36.980263,143.111695
DADSWELLS BRIDGE,3385,-36.916062,142.511313
GLENORCHY,3385,-36.910409,142.655571
LEDCOURT,3385,-36.96876,142.515765
RIACHELLA,3385,-36.82488,142.687805
MARNOO,3387,-36.671662,142.869768
BANYENA,3388,-36.572229,142.816541
RUPANYUP,3388,-36.630462,142.63136
KEWELL,3390,-36.449414,142.422325
MURTOA,3390,-36.620248,142.470529
BRIM,3391,-36.069357,142.519496
MINYIP,3392,-36.460553,142.586163
SHEEP HILLS,3392,-36.349474,142.529677
AILSA,3393,-36.331465,142.363833
ANGIP,3393,-36.102371,142.224515
AUBREY,3393,-36.241102,142.234143
BANGERANG,3393,-36.182982,142.549706
CANNUM,3393,-36.310127,142.243725
CRYMELON,3393,-36.154101,142.268098
KELLALAC,3393,-36.389971,142.394232
LAH,3393,-36.128411,142.420452
WARRACKNABEAL,3393,-36.253202,142.402596
WILKUR,3393,-36.050005,142.724535
WILLENABRINA,3393,-36.040823,142.218395
BEULAH,3395,-35.93804,142.418961
KENMARE,3395,-35.930786,142.238991
HOPETOUN,3396,-35.727235,142.364734
HOPEVALE,3396,-35.806411,142.240719
YARTO,3396,-35.517724,142.358521
HORSHAM,3400,-36.711714,142.204899
HORSHAM WEST,3400,-36.722304,142.17788
BLACKHEATH,3401,-36.455387,142.30917
BRIMPAEN,3401,-37.050262,142.211604
BUNGALALLY,3401,-36.797118,142.230516
CHERRYPOOL,3401,-37.121087,142.192167
DOOEN,3401,-36.657569,142.257313
DRUNG,3401,-36.715903,142.3345
GYMBOWEN,3401,-36.731403,141.592382
HAVEN,3401,-36.748085,142.178789
HORSHAM,3401,-36.711714,142.204899
JUNG,3401,-36.607806,142.360074
KALKEE,3401,-36.547269,142.209253
KANAGULK,3401,-37.12889,141.848527
KARNAK,3401,-36.865321,141.486565
LAHARUM,3401,-36.946669,142.323875
LONGERENONG,3401,-36.671731,142.330787
LOWER NORTON,3401,-36.785779,142.083514
MCKENZIE CREEK,3401,-36.783608,142.173995
MOCKINYA,3401,-36.961856,142.153851
MURRA WARRA,3401,-36.437495,142.225612
NURCOUNG,3401,-36.631605,141.683367
NURRABIEL,3401,-36.913902,142.038307
PIMPINIO,3401,-36.587573,142.120393
QUANTONG,3401,-36.737533,142.021508
RIVERSIDE,3401,-36.703736,142.238181
ROCKLANDS,3401,-37.207637,141.942484
ST HELENS PLAINS,3401,-36.767965,142.406357
TELANGATUK EAST,3401,-37.074713,141.976505
TOOLONDO,3401,-36.992793,141.93403
VECTIS,3401,-36.713783,142.062946
WAIL,3401,-36.509398,142.1026
WALLUP,3401,-36.331267,142.239762
WARTOOK,3401,-37.033414,142.340592
WONWONDAH,3401,-36.899739,142.135435
ZUMSTEINS,3401,-37.092355,142.431933
HORSHAM,3402,-37.164183,142.666302
BALMORAL,3407,-37.248109,141.841762
ENGLEFIELD,3407,-37.31601,141.81832
GATUM,3407,-37.397755,141.956241
PIGEON PONDS,3407,-37.295245,141.668245
VASEY,3407,-37.370978,141.872121
ARAPILES,3409,-36.779163,141.762526
CLEAR LAKE,3409,-37.04162,141.716529
DOUGLAS,3409,-37.842988,144.892631
DUCHEMBEGARRA,3409,-36.623534,141.947299
GRASS FLAT,3409,-36.664864,141.865311
JILPANGER,3409,-37.783465,145.175907
MIGA LAKE,3409,-36.93852,141.626234
MITRE,3409,-36.754508,141.767459
NATIMUK,3409,-36.741816,141.941948
NORADJUHA,3409,-36.834829,141.972845
TOOAN,3409,-36.783589,141.764633
WOMBELANO,3409,-37.079728,141.747046
GOROKE,3412,-36.747329,141.472623
MINIMAY,3413,-36.714185,141.180738
NEUARPURR,3413,-36.743083,141.071497
OZENKADNOOK,3413,-36.844934,141.330012
PERONNE,3413,-36.724135,141.377862
ANTWERP,3414,-36.298418,142.024557
DIMBOOLA,3414,-36.455551,142.027588
TARRANYURK,3414,-36.211453,142.034536
MIRAM,3415,-36.378089,141.357823
BROUGHTON,3418,-36.165178,141.334582
GERANG GERUNG,3418,-36.373589,141.885252
GLENLEE,3418,-36.244028,141.852554
KIATA,3418,-36.402759,141.79328
LAWLOIT,3418,-36.419148,141.463761
LITTLE DESERT,3418,-36.48148,141.600922
LORQUON,3418,-36.133321,141.749243
NETHERBY,3418,-36.104936,141.616536
NHILL,3418,-36.332858,141.650635
YANAC,3418,-36.147883,141.435374
KANIVA,3419,-36.377563,141.244901
LILLIMUR,3420,-36.361245,141.117251
SERVICETON,3420,-36.376549,140.986209
TELOPEA DOWNS,3420,-36.13056,141.143503
JEPARIT,3423,-36.14057,141.987191
ALBACUTYA,3424,-35.691918,141.974601
YAAPEET,3424,-35.766065,142.060249
DIGGERS REST,3427,-37.627752,144.719981
BULLA,3428,-37.637155,144.804139
SUNBURY,3429,-37.576859,144.731425
WILDWOOD,3429,-37.575434,144.795859
CLARKEFIELD,3430,-37.483711,144.745723
RIDDELLS CREEK,3431,-37.463999,144.665048
BOLINDA,3432,-37.433632,144.77977
CHEROKEE,3434,-37.389195,144.6379
KERRIE,3434,-37.390614,144.697088
ROMSEY,3434,-37.348923,144.742359
SPRINGFIELD,3434,-37.358834,144.821043
BENLOCH,3435,-37.189508,144.692899
GOLDIE,3435,-37.255579,144.801162
LANCEFIELD,3435,-37.276795,144.731718
NULLA VALE,3435,-37.172089,144.750918
BULLENGAROOK,3437,-37.523331,144.477431
GISBORNE,3437,-37.488037,144.59112
GISBORNE SOUTH,3437,-37.53865,144.597248
NEW GISBORNE,3438,-37.459119,144.599206
MACEDON,3440,-37.399584,144.588405
MOUNT MACEDON,3441,-37.396044,144.590721
ASHBOURNE,3442,-37.385948,144.446407
CADELLO,3442,-37.295815,144.543992
CARLSRUHE,3442,-37.286556,144.513823
COBAW,3442,-37.260826,144.655906
HANGING ROCK,3442,-37.327655,144.594968
HESKET,3442,-37.34745,144.620225
NEWHAM,3442,-37.313335,144.592383
ROCHFORD,3442,-37.311685,144.676513
WOODEND,3442,-37.35681,144.52727
WOODEND NORTH,3442,-37.323937,144.541667
BARFOLD,3444,-37.091978,144.50611
BAYNTON,3444,-37.147477,144.628537
BAYNTON EAST,3444,-37.122322,144.71193
EDGECOMBE,3444,-37.183037,144.493092
GLENHOPE,3444,-37.086279,144.609211
GREENHILL,3444,-37.174031,144.449466
KYNETON,3444,-37.248467,144.453354
KYNETON SOUTH,3444,-37.286853,144.445689
LANGLEY,3444,-37.149333,144.493373
LAURISTON,3444,-37.239435,144.368266
LYAL,3444,-36.929279,144.459509
METCALFE EAST,3444,-37.137839,144.447253
MIA MIA,3444,-37.000433,144.570796
MYRTLE CREEK,3444,-36.951244,144.428545
PASTORIA,3444,-37.216862,144.53667
PASTORIA EAST,3444,-37.178335,144.640182
PIPERS CREEK,3444,-37.252289,144.547277
REDESDALE,3444,-37.021382,144.532054
SIDONIA,3444,-37.137443,144.573806
SPRING HILL,3444,-37.314116,144.35067
TYLDEN,3444,-37.32541,144.406442
TYLDEN SOUTH,3444,-37.353578,144.373464
DRUMMOND NORTH,3446,-37.199978,144.29344
MALMSBURY,3446,-37.18842,144.382533
TARADALE,3447,-37.133438,144.356519
ELPHINSTONE,3448,-37.105,144.337783
METCALFE,3448,-37.102084,144.423136
SUTTON GRANGE,3448,-36.990506,144.358577
CASTLEMAINE,3450,-37.063869,144.217101
MOONLIGHT FLAT,3450,-37.060183,144.244448
BARKERS CREEK,3451,-37.0292,144.239946
CAMPBELLS CREEK,3451,-37.094107,144.203759
CHEWTON,3451,-37.081139,144.25651
CHEWTON BUSHLANDS,3451,-37.073952,144.286574
FARADAY,3451,-37.043052,144.290219
FRYERSTOWN,3451,-37.141197,144.24988
GLENLUCE,3451,-37.187501,144.23947
GOLDEN POINT,3451,-37.070795,144.274803
GOWER,3451,-37.03258,144.100645
GUILDFORD,3451,-37.151069,144.160962
IRISHTOWN,3451,-37.153711,144.23221
MCKENZIE HILL,3451,-37.069084,144.198261
MUCKLEFORD,3451,-37.057404,144.145959
TARILTA,3451,-37.166325,144.192235
VAUGHAN,3451,-37.157268,144.210421
YAPEEN,3451,-37.122722,144.16841
HARCOURT,3453,-36.998965,144.262588
HARCOURT NORTH,3453,-36.970325,144.28189
RAVENSWOOD,3453,-36.899628,144.217529
RAVENSWOOD SOUTH,3453,-36.934927,144.227601
BARRYS REEF,3458,-37.451989,144.293564
BLACKWOOD,3458,-37.472283,144.306407
FERN HILL,3458,-37.357651,144.392692
LERDERDERG,3458,-37.51709,144.37593
LITTLE HAMPTON,3458,-37.359474,144.292594
NEWBURY,3458,-37.409771,144.289521
NORTH BLACKWOOD,3458,-37.466577,144.303975
TRENTHAM,3458,-37.389363,144.326001
TRENTHAM EAST,3458,-37.396258,144.381486
BASALT,3460,-37.308233,144.094647
DAYLESFORD,3460,-37.343587,144.142321
BULLARTO,3461,-37.394334,144.221001
BULLARTO SOUTH,3461,-37.423908,144.210458
CLYDESDALE,3461,-37.178651,144.089983
COOMOORA,3461,-37.328489,144.189283
DENVER,3461,-37.277351,144.296321
DRUMMOND,3461,-37.240902,144.326211
DRY DIGGINGS,3461,-37.299821,144.162344
EGANSTOWN,3461,-37.340453,144.097095
ELEVATED PLAINS,3461,-37.291096,144.124212
FRANKLINFORD,3461,-37.248503,144.133262
GLENLYON,3461,-37.295179,144.244678
HEPBURN,3461,-37.272298,144.194341
HEPBURN SPRINGS,3461,-37.315344,144.138197
KORWEINGUBOORA,3461,-37.452037,144.134899
LEONARDS HILL,3461,-37.425757,144.115474
LYONVILLE,3461,-37.392417,144.250813
MOUNT FRANKLIN,3461,-37.260735,144.158367
MUSK,3461,-37.371711,144.192548
MUSK VALE,3461,-37.272298,144.194341
PORCUPINE RIDGE,3461,-37.248496,144.199698
SAILORS FALLS,3461,-37.405983,144.123382
SAILORS HILL,3461,-37.353431,144.130517
SHEPHERDS FLAT,3461,-37.271431,144.108578
SPARGO CREEK,3461,-37.48976,144.143564
STRANGWAYS,3461,-37.135335,144.076945
WHEATSHEAF,3461,-37.313722,144.226117
YANDOIT,3461,-37.21296,144.088977
YANDOIT HILLS,3461,-37.213136,144.048852
GREEN GULLY,3462,-37.107829,144.095795
JOYCES CREEK,3462,-37.087397,143.993953
MUCKLEFORD SOUTH,3462,-37.095316,144.120321
NEWSTEAD,3462,-37.105377,144.06511
SANDON,3462,-37.168753,144.038138
WELSHMANS REEF,3462,-37.071551,144.045866
BARINGHUP,3463,-36.984271,143.951487
BARINGHUP WEST,3463,-36.951137,143.871634
BRADFORD,3463,-36.909699,144.031371
EASTVILLE,3463,-36.875239,143.960842
LAANECOORIE,3463,-36.827056,143.904434
MALDON,3463,-36.996354,144.06843
NEEREMAN,3463,-36.920084,143.943625
NUGGETTY,3463,-36.946118,144.061662
PERKINS REEF,3463,-37.004817,144.066266
PORCUPINE FLAT,3463,-36.962657,144.120525
SHELBOURNE,3463,-36.846308,144.021846
TARRENGOWER,3463,-37.021233,144.04768
WALMER,3463,-36.965043,144.166608
WOODSTOCK WEST,3463,-36.841499,143.985758
CARISBROOK,3464,-37.007853,143.796275
ADELAIDE LEAD,3465,-37.074671,143.677358
ALMA,3465,-37.028805,143.676819
BOWENVALE,3465,-36.983442,143.699121
BUNG BONG,3465,-37.10168,143.566093
COTSWOLD,3465,-37.124567,143.886721
CRAIGIE,3465,-37.103917,143.775852
DAISY HILL,3465,-37.117514,143.716854
FLAGSTAFF,3465,-37.048352,143.78002
GOLDEN POINT,3465,-37.088162,143.762344
HAVELOCK,3465,-36.967324,143.770432
HOMEBUSH,3465,-37.057395,143.534299
MAJORCA,3465,-37.116323,143.795769
MARYBOROUGH,3465,-37.048387,143.735409
MOOLORT,3465,-37.078304,143.927259
MOONLIGHT FLAT,3465,-37.049633,143.659182
NATTE YALLOCK,3465,-36.94085,143.46707
RATHSCAR,3465,-37.005652,143.546997
RATHSCAR WEST,3465,-37.021108,143.481855
RODBOROUGH,3465,-37.100827,143.877588
SIMSON,3465,-36.994898,143.774385
TIMOR,3465,-36.970369,143.710742
TIMOR WEST,3465,-36.967873,143.690326
WAREEK,3465,-36.990541,143.608305
AVOCA,3467,-37.088539,143.473798
MOYREISK,3467,-36.909968,143.37707
AMPHITHEATRE,3468,-37.182344,143.399915
MOUNT LONARCH,3468,-37.258868,143.397305
ELMHURST,3469,-37.179436,143.249097
GLENLOFTY,3469,-37.114597,143.220904
GLENLOGIE,3469,-37.223958,143.281716
GLENPATRICK,3469,-37.136846,143.33887
NOWHERE CREEK,3469,-37.128713,143.300831
BET BET,3472,-36.924333,143.756154
BETLEY,3472,-36.909469,143.796024
BROMLEY,3472,-36.8779,143.75353
DUNLUCE,3472,-36.907629,143.58518
DUNOLLY,3472,-36.860408,143.732463
EDDINGTON,3472,-36.887013,143.863928
GOLDSBOROUGH,3472,-36.825061,143.676938
INKERMAN,3472,-36.807319,143.678195
MCINTYRE,3472,-36.681035,143.691851
MOLIAGUL,3472,-36.753256,143.665544
MOUNT HOOGHLY,3472,-36.917005,143.696699
ARCHDALE,3475,-36.830903,143.502295
ARCHDALE JUNCTION,3475,-36.884915,143.517311
BEALIBA,3475,-36.789386,143.549822
BURKES FLAT,3475,-36.655933,143.550981
COCHRANES CREEK,3475,-36.703611,143.59134
EMU,3475,-36.731139,143.44389
LOGAN,3475,-36.622015,143.490756
AVON PLAINS,3478,-36.544552,142.921227
BEAZLEYS BRIDGE,3478,-36.713108,143.157179
CARAPOOEE,3478,-36.711719,143.31401
CARAPOOEE WEST,3478,-36.730657,143.288292
COONOOER BRIDGE,3478,-36.475617,143.31468
COONOOER WEST,3478,-36.425651,143.219362
DOOBOOBETIC,3478,-36.374108,143.183679
GOOROC,3478,-36.467068,143.202071
GOWAR EAST,3478,-36.553102,143.418817
GRE GRE,3478,-36.661542,143.057792
GRE GRE NORTH,3478,-36.594805,143.077543
GRE GRE SOUTH,3478,-36.678933,143.028991
KOOREH,3478,-36.641341,143.384603
MEDLYN,3478,-36.684629,143.264101
MOOLERR,3478,-36.630985,143.217849
MOONAMBEL,3478,-36.988253,143.320323
PERCYDALE,3478,-37.07827,143.387035
REDBANK,3478,-36.933063,143.3162
SLATY CREEK,3478,-36.546474,143.298301
ST ARNAUD,3478,-36.615024,143.256852
ST ARNAUD EAST,3478,-36.6084,143.2675
ST ARNAUD NORTH,3478,-36.592298,143.169342
STUART MILL,3478,-36.805748,143.286094
SUTHERLAND,3478,-36.525343,143.189561
SWANWATER,3478,-36.523775,143.103615
TANWOOD,3478,-37.006265,143.387126
TOTTINGTON,3478,-36.777057,143.121261
TRAYNORS LAGOON,3478,-36.579533,142.981976
TULKARA,3478,-36.943712,143.061809
WARRENMANG,3478,-37.037515,143.311499
YAWONG HILLS,3478,-36.470002,143.381591
AREEGRA,3480,-36.236565,142.687307
BANYENONG,3480,-36.264615,143.080898
BOOLITE,3480,-36.34364,142.65012
CARRON,3480,-36.292385,142.739051
COPE COPE,3480,-36.470318,143.068595
CORACK,3480,-36.171602,143.040236
CORACK EAST,3480,-36.17753,143.038318
DONALD,3480,-36.37066,142.982457
GIL GIL,3480,-36.322142,143.034902
JEFFCOTT,3480,-36.350942,143.112537
JEFFCOTT NORTH,3480,-36.28673,143.109711
LAEN,3480,-36.452296,142.780344
LAEN EAST,3480,-36.395951,142.893872
LAEN NORTH,3480,-36.382094,142.804115
LAKE BULOKE,3480,-36.202162,142.985275
LAWLER,3480,-36.378438,142.74228
LITCHFIELD,3480,-36.296777,142.845319
RICH AVON,3480,-36.444739,142.916181
RICH AVON EAST,3480,-36.51331,142.887634
RICH AVON WEST,3480,-36.488443,142.836874
SWANWATER WEST,3480,-36.512366,143.026085
MASSEY,3482,-36.226051,142.859931
MORTON PLAINS,3482,-36.082429,142.882888
WARMUR,3482,-36.128125,142.81005
WATCHEM,3482,-36.148917,142.858965
WATCHEM WEST,3482,-36.187579,142.759352
BALLAPUR,3483,-35.979172,142.747934
BIRCHIP,3483,-35.980771,142.917843
BIRCHIP WEST,3483,-36.013841,142.821841
CURYO,3483,-35.823165,142.796611
JIL JIL,3483,-35.834959,142.992658
KARYRIE,3483,-35.902049,142.869123
KINNABULLA,3483,-35.899008,142.795867
MARLBED,3483,-35.820897,142.849932
NARRAPORT,3483,-36.027098,143.061288
REEDY DAM,3483,-35.964848,142.633563
WHIRILY,3483,-35.922694,142.986589
BANYAN,3485,-35.635088,142.766116
WATCHUPGA,3485,-35.758053,142.708455
WILLANGIE,3485,-35.719379,142.796561
WOOMELANG,3485,-35.680879,142.666099
LASCELLES,3487,-35.606765,142.578891
SPEED,3488,-35.400818,142.44027
TURRIFF EAST,3488,-35.445806,142.588306
TEMPY,3489,-35.344581,142.476178
BOINKA,3490,-35.199697,141.600652
KULWIN,3490,-35.066719,142.655764
OUYEN,3490,-35.072165,142.318876
TORRITA,3490,-35.13549,141.905953
TUTYE,3490,-35.214904,141.498506
PATCHEWOLLOCK,3491,-35.382896,142.1895
CARWARP,3494,-34.457991,142.230811
COLIGNAN,3494,-34.52924,142.36671
IRAAK,3494,-34.429715,142.353874
NANGILOC,3494,-34.474154,142.359892
CARDROSS,3496,-34.292017,142.145463
CULLULLERAINE,3496,-34.278196,141.597777
MERINGUR,3496,-34.39048,141.338808
MERRINEE,3496,-34.369766,141.812102
NEDS CORNER,3496,-34.274805,141.263471
RED CLIFFS,3496,-34.308353,142.186534
SUNNYCLIFFS,3496,-34.28754,142.191911
WERRIMULL,3496,-34.38721,141.597044
IRYMPLE,3498,-34.234604,142.181724
MILDURA,3500,-34.181714,142.163072
MILDURA EAST,3500,-34.203319,142.17039
MILDURA WEST,3500,-34.203319,142.17039
HATTAH,3501,-34.850899,142.327634
KOORLONG,3501,-34.264174,142.096554
MILDURA CENTRE PLAZA,3501,-34.207114,142.136298
MILDURA SOUTH,3501,-34.244732,142.090351
NICHOLS POINT,3501,-34.214151,142.186812
MILDURA,3502,-37.972887,145.25835
BIRDWOODTON,3505,-34.19768,142.057629
CABARITA,3505,-34.197773,142.084141
MERBEIN,3505,-34.167929,142.060861
MERBEIN SOUTH,3505,-34.215642,142.024463
MERBEIN WEST,3505,-34.166774,142.007289
WARGAN,3505,-34.264274,141.954205
YELTA,3505,-34.149578,141.978682
COWANGIE,3506,-35.27579,141.399006
WALPEUP,3507,-35.191803,142.02364
LINGA,3509,-35.173454,141.692549
UNDERBOOL,3509,-35.169799,141.808981
CARINA,3512,-35.218149,141.090483
MURRAYVILLE,3512,-35.262387,141.183321
MARONG,3515,-36.736592,144.132572
WILSONS HILL,3515,-36.724153,144.100779
BRIDGEWATER,3516,-36.593021,143.924643
BRIDGEWATER NORTH,3516,-36.524666,143.996272
BRIDGEWATER ON LODDON,3516,-36.601351,143.941051
DERBY,3516,-36.64949,144.017206
LEICHARDT,3516,-36.691491,144.075949
YARRABERB,3516,-36.603624,144.062812
BEARS LAGOON,3517,-36.298881,143.915229
BRENANAH,3517,-36.566388,143.707293
GLENALBYN,3517,-36.508436,143.764881
INGLEWOOD,3517,-36.576463,143.868955
JARKLIN,3517,-36.269461,143.966665
KINGOWER,3517,-36.608608,143.7543
KURTING,3517,-36.53964,143.811981
POWLETT PLAINS,3517,-36.437652,143.899053
RHEOLA,3517,-36.651471,143.699164
SALISBURY WEST,3517,-36.517569,143.923368
SERPENTINE,3517,-36.412547,143.974416
BERRIMAL,3518,-36.501479,143.456459
BORUNG,3518,-36.291375,143.751749
FENTONS CREEK,3518,-36.564065,143.519958
FERNIHURST,3518,-36.240301,143.867439
FIERY FLAT,3518,-36.404297,143.823229
KURRACA,3518,-36.517281,143.613413
KURRACA WEST,3518,-36.504624,143.556361
MYSIA,3518,-36.234836,143.758455
NINE MILE,3518,-36.421098,143.459744
RICHMOND PLAINS,3518,-36.391689,143.446399
SKINNERS FLAT,3518,-36.3585,143.582874
WEDDERBURN,3518,-36.418555,143.61284
WEDDERBURN JUNCTION,3518,-36.424318,143.68675
WEHLA,3518,-36.603174,143.61479
WOOLSHED FLAT,3518,-36.331249,143.660601
WOOSANG,3518,-36.345755,143.470856
KINYPANIAL,3520,-36.331469,143.83557
KORONG VALE,3520,-36.356586,143.705869
PYALONG,3521,-37.120609,144.882105
EMU FLAT,3522,-37.126178,144.750364
TOOBORAC,3522,-37.046912,144.798912
ARGYLE,3523,-36.944132,144.732986
COSTERFIELD,3523,-36.894752,144.80027
DERRINAL,3523,-36.88112,144.649341
HEATHCOTE,3523,-36.922052,144.708908
HEATHCOTE SOUTH,3523,-37.005382,144.723819
KNOWSLEY,3523,-36.82727,144.595092
LADYS PASS,3523,-36.829301,144.710782
MOORMBOOL WEST,3523,-36.802355,144.882263
MOUNT CAMEL,3523,-36.787493,144.715683
REDCASTLE,3523,-36.795314,144.802939
BARRAKEE,3525,-36.268867,143.426085
BUCKRABANYULE,3525,-36.264986,143.508029
CHARLTON,3525,-36.269007,143.350406
GRANITE FLAT,3525,-36.213632,143.128316
LAKE MARMAL,3525,-36.160504,143.513558
NAREEWILLOCK,3525,-36.158726,143.431571
TEDDYWADDY,3525,-36.196584,143.341278
TEDDYWADDY WEST,3525,-36.196125,143.204814
TERRAPPEE,3525,-36.150048,143.587841
WOOROONOOK,3525,-36.261221,143.211082
WYCHITELLA,3525,-36.273232,143.597571
WYCHITELLA NORTH,3525,-36.197174,143.627886
YEUNGROON,3525,-36.386796,143.381179
YEUNGROON EAST,3525,-36.356027,143.438925
BUNGULUKE,3527,-36.055958,143.38661
DUMOSA,3527,-35.903515,143.261657
GLENLOTH,3527,-36.139588,143.339126
GLENLOTH EAST,3527,-36.059245,143.450693
THALIA,3527,-36.09834,143.067339
TOWANINNY,3527,-35.812817,143.365339
TOWANINNY SOUTH,3527,-35.939667,143.331977
WYCHEPROOF,3527,-36.077203,143.227148
WYCHEPROOF SOUTH,3527,-36.135691,143.18554
KALPIENUNG,3529,-35.780006,143.259314
NULLAWIL,3529,-35.854123,143.178092
CULGOA,3530,-35.718468,143.107379
WARNE,3530,-35.780915,143.120509
BERRIWILLOCK,3531,-35.635336,142.991804
BOIGBEAT,3531,-35.563179,142.914657
SPRINGFIELD,3531,-35.583752,143.109086
BIMBOURIE,3533,-35.360723,142.786824
LAKE TYRRELL,3533,-35.309,142.7795
MITTYACK,3533,-35.157562,142.656977
NANDALY,3533,-35.308438,142.698564
NINDA,3533,-35.45375,142.755877
NYARRIN,3533,-35.388524,142.650655
SEA LAKE,3533,-35.504189,142.850808
TYRRELL,3533,-35.425329,142.961344
TYRRELL DOWNS,3533,-35.358339,142.972786
BARRAPORT,3537,-36.011488,143.671965
BARRAPORT WEST,3537,-36.018669,143.527848
BOORT,3537,-36.116842,143.725589
CANARY ISLAND,3537,-35.986353,143.87463
CATUMNAL,3537,-36.090288,143.644117
GREDGWIN,3537,-35.984791,143.604361
LEAGHUR,3537,-35.942274,143.818646
MINMINDIE,3537,-36.042299,143.745106
YANDO,3537,-36.068607,143.807342
CANNIE,3540,-35.75855,143.445376
NINYEUNOOK,3540,-35.942628,143.445965
OAKVALE,3540,-35.907104,143.593301
QUAMBATOOK,3540,-35.849005,143.520646
COKUM,3542,-35.758096,143.284751
LALBERT,3542,-35.667621,143.374622
TITYBONG,3542,-35.699829,143.38222
CHINANGIN,3544,-35.513341,143.197025
GOWANFORD,3544,-35.410778,143.191625
MURNUNGIN,3544,-35.614725,143.237807
ULTIMA,3544,-35.470402,143.26756
ULTIMA EAST,3544,-35.467617,143.341976
WAITCHIE,3544,-35.365614,143.103594
BOLTON,3546,-34.96464,142.884361
CHINKAPOOK,3546,-35.190061,142.947359
COCAMBA,3546,-35.109974,142.900139
GERAHMIN,3546,-35.181035,142.795553
MANANGATANG,3546,-35.054563,142.882871
TUROAR,3546,-35.181524,143.079145
WINNAMBOOL,3546,-34.977791,142.767585
ANNUELLO,3549,-34.847699,142.830117
BANNERTON,3549,-34.698232,142.813221
HAPPY VALLEY,3549,-34.695199,142.713108
LIPAROO,3549,-34.819892,142.581157
ROBINVALE,3549,-34.590121,142.772064
ROBINVALE IRRIGATION DISTRICT SECTION B,3549,-34.612077,142.789595
ROBINVALE IRRIGATION DISTRICT SECTION C,3549,-34.626246,142.730687
ROBINVALE IRRIGATION DISTRICT SECTION D,3549,-34.636393,142.75566
ROBINVALE IRRIGATION DISTRICT SECTION E,3549,-34.664554,142.759585
TOL TOL,3549,-34.642107,142.822454
WANDOWN,3549,-34.820509,142.92752
WEMEN,3549,-34.804308,142.672627
BENDIGO,3550,-36.758492,144.280075
BENDIGO SOUTH,3550,-36.771921,144.291162
DIAMOND HILL,3550,-36.822895,144.270219
EAST BENDIGO,3550,-36.749405,144.30275
FLORA HILL,3550,-36.774405,144.290098
IRONBARK,3550,-36.74571,144.25755
KENNINGTON,3550,-36.767542,144.301903
LONG GULLY,3550,-36.746922,144.258137
NORTH BENDIGO,3550,-36.748507,144.280995
QUARRY HILL,3550,-36.780733,144.270238
SPRING GULLY,3550,-36.803325,144.289662
STRATHDALE,3550,-36.75934,144.298591
WEST BENDIGO,3550,-36.759261,144.251415
WHITE HILLS,3550,-36.73025,144.307497
ARNOLD,3551,-36.690822,143.868371
ARNOLD WEST,3551,-36.661766,143.76205
ASCOT,3551,-36.71111,144.332462
AXE CREEK,3551,-36.848927,144.419476
AXEDALE,3551,-36.787917,144.504133
BAGSHOT,3551,-36.654973,144.403153
BAGSHOT NORTH,3551,-36.600407,144.4118
CORNELLA,3551,-36.704414,144.775073
EMU CREEK,3551,-36.848332,144.336312
EPPALOCK,3551,-36.887127,144.390872
EPSOM,3551,-36.71462,144.313944
HUNTLY,3551,-36.667075,144.331972
HUNTLY NORTH,3551,-36.587872,144.333014
JUNORTOUN,3551,-36.773334,144.360111
KIMBOLTON,3551,-36.915031,144.492447
LLANELLY,3551,-36.73205,143.857071
LOCKWOOD,3551,-36.811409,144.174268
LOCKWOOD SOUTH,3551,-36.844443,144.158421
LONGLEA,3551,-36.715051,144.415385
MAIDEN GULLY,3551,-36.742983,144.211349
MANDURANG,3551,-36.817858,144.295026
MANDURANG SOUTH,3551,-36.870023,144.27292
MINTO,3551,-36.486997,144.495741
MOSQUITO CREEK,3551,-36.834244,144.501818
MURPHYS CREEK,3551,-36.753091,143.771109
MYOLA,3551,-36.643942,144.65305
MYOLA EAST,3551,-36.643993,144.709894
NEWBRIDGE,3551,-36.742221,143.908207
PAINSWICK,3551,-36.819705,143.738403
PILCHERS BRIDGE,3551,-36.926594,144.397922
SEDGWICK,3551,-36.87244,144.314641
STRATHFIELDSAYE,3551,-36.80632,144.355351
TARNAGULLA,3551,-36.774013,143.833431
TOOLLEEN,3551,-36.720439,144.682618
WAANYARRA,3551,-36.820359,143.815216
WELLSFORD,3551,-36.682084,144.38645
WOODSTOCK ON LODDON,3551,-36.745508,144.001318
BENDIGO,3552,-37.825288,145.011924
BIG HILL,3555,-36.834685,144.230004
GOLDEN GULLY,3555,-36.781511,144.263033
GOLDEN SQUARE,3555,-36.774862,144.263168
KANGAROO FLAT,3555,-36.796876,144.243973
LANSELL PLAZA,3555,-36.792655,144.244432
SPECIMEN HILL,3555,-36.765314,144.248517
CALIFORNIA GULLY,3556,-36.732656,144.257173
CAMPBELLS FOREST,3556,-36.6182,144.122033
EAGLEHAWK,3556,-36.717864,144.252541
EAGLEHAWK NORTH,3556,-36.690494,144.258733
JACKASS FLAT,3556,-36.696142,144.277644
MYERS FLAT,3556,-36.701241,144.208904
SAILORS GULLY,3556,-36.708908,144.232158
SEBASTIAN,3556,-36.593639,144.188967
WHIPSTICK,3556,-36.664052,144.271258
WOODVALE,3556,-36.642442,144.257034
BARNADOWN,3557,-36.653535,144.506417
FOSTERVILLE,3557,-36.696091,144.515424
GOORNONG,3557,-36.614875,144.506062
MUSKERRY,3557,-36.697844,144.549804
MUSKERRY EAST,3557,-36.675599,144.618476
BURNEWANG,3558,-36.485796,144.713905
COROP WEST,3558,-36.504303,144.75
CREEK VIEW,3558,-36.594619,144.636888
ELMORE,3558,-36.493319,144.609344
HUNTER,3558,-36.442531,144.504955
AVONMORE,3559,-36.529882,144.604459
COLBINABBIN,3559,-36.590262,144.793787
COROP,3559,-36.457558,144.793985
RUNNYMEDE,3559,-36.534062,144.624333
BALLENDELLA,3561,-36.298882,144.673529
BAMAWM,3561,-36.256504,144.564747
BAMAWM EXTENSION,3561,-36.198835,144.616856
DIGGORA,3561,-36.352334,144.576262
DIGGORA WEST,3561,-36.354517,144.50504
FAIRY DELL,3561,-36.34374,144.743065
NANNEELLA,3561,-36.284193,144.777526
ROCHESTER,3561,-36.361458,144.701328
ROCHESTER WEST,3561,-36.352097,144.693262
THE SETTLEMENT,3561,-36.35211,144.644379
TIMMERING,3561,-36.357583,144.857866
TORRUMBARRY,3562,-35.975398,144.459855
LOCKINGTON,3563,-36.271227,144.481629
CAMPASPE WEST,3564,-36.131154,144.728548
ECHUCA,3564,-36.128659,144.748178
ECHUCA EAST,3564,-36.140551,144.764893
ECHUCA SOUTH,3564,-36.14051,144.74663
ECHUCA VILLAGE,3564,-36.140476,144.813682
ECHUCA WEST,3564,-36.182336,144.673419
KANYAPELLA,3564,-36.096733,144.88293
MCEVOYS,3564,-36.155695,144.593715
PATHO,3564,-36.012233,144.43748
PATHO WEST,3564,-36.038688,144.373109
ROSLYNMEAD,3564,-36.129538,144.507655
SIMMIE,3564,-36.217408,144.809735
WHARPARILLA,3564,-36.108652,144.629715
KOTTA,3565,-36.192354,144.526275
GUNBOWER,3566,-35.957441,144.366659
HORFIELD,3567,-35.886223,144.242273
LEITCHVILLE,3567,-35.904018,144.301443
BURKES BRIDGE,3568,-35.836345,144.336635
COHUNA,3568,-35.808807,144.221264
CULLEN,3568,-35.79337,144.160827
DALTONS BRIDGE,3568,-35.813775,144.182809
GANNAWARRA,3568,-35.711438,144.146351
KEELY,3568,-35.853908,144.244267
MACORNA NORTH,3568,-35.851386,144.091251
MCMILLANS,3568,-35.858679,144.159049
MEAD,3568,-35.811183,144.124299
MINCHA WEST,3568,-35.920497,144.100406
WEE WEE RUP,3568,-35.857221,144.282705
AUCHMORE,3570,-36.474005,144.1055
DRUMMARTIN,3570,-36.44328,144.430294
KAMAROOKA,3570,-36.458285,144.380317
NEILBOROUGH,3570,-36.566527,144.243285
RAYWOOD,3570,-36.535452,144.206583
SUMMERFIELD,3570,-38.24686,145.066308
DINGEE,3571,-36.370912,144.231949
KAMAROOKA NORTH,3571,-36.399867,144.308331
POMPAPIEL,3571,-36.35515,144.0926
TANDARRA,3571,-36.428983,144.230263
MILLOO,3572,-36.356189,144.381891
PIAVELLA,3572,-36.299018,144.319328
PRAIRIE,3572,-36.301144,144.231929
TENNYSON,3572,-36.299054,144.43186
CALIVIL,3573,-36.298763,144.085645
MITIAMO,3573,-36.211184,144.230492
PINE GROVE,3573,-36.223216,144.411942
PINE GROVE EAST,3573,-36.225801,144.454498
TERRICK TERRICK EAST,3573,-36.129338,144.382976
GLADFIELD,3575,-36.042544,143.990513
JUNGABURRA,3575,-36.055885,144.287813
LODDON VALE,3575,-35.975089,143.944279
MINCHA,3575,-35.982312,144.078033
MOLOGA,3575,-36.163631,144.171905
PYRAMID HILL,3575,-36.055221,144.115148
SYLVATERRE,3575,-36.086706,144.236156
TERRICK TERRICK,3575,-36.091366,144.257619
YARRAWALLA,3575,-36.152718,144.101756
DURHAM OX,3576,-36.198759,143.956055
APPIN,3579,-35.878433,143.872782
APPIN SOUTH,3579,-35.940964,143.859905
BAEL BAEL,3579,-35.6768,143.727205
BEAUCHAMP,3579,-35.612248,143.623573
BENJEROOP,3579,-35.490506,143.818588
BUDGERUM EAST,3579,-35.786233,143.660835
CAPELS CROSSING,3579,-35.615243,143.942374
DINGWALL,3579,-35.815627,143.829397
FAIRLEY,3579,-35.672459,143.86925
GONN CROSSING,3579,-35.508028,143.95598
KERANG,3579,-35.735049,143.918869
KERANG EAST,3579,-35.786359,144.019485
KOROOP,3579,-35.743107,144.07558
LAKE MERAN,3579,-35.876065,143.800262
MACORNA,3579,-35.918792,144.028959
MEERING WEST,3579,-35.884903,143.71319
MILNES BRIDGE,3579,-35.790873,144.059018
MURRABIT,3579,-35.527252,143.956969
MURRABIT WEST,3579,-35.502293,143.910118
MYALL,3579,-35.594342,143.996812
MYSTIC PARK,3579,-35.558116,143.726695
NORMANVILLE,3579,-35.809622,143.740185
PINE VIEW,3579,-35.807924,143.659496
REEDY LAKE,3579,-35.687384,143.875613
SANDHILL LAKE,3579,-35.740062,143.688254
TEAL POINT,3579,-35.675259,144.072561
TRAGOWEL,3579,-35.856399,143.982847
WANDELLA,3579,-35.697707,143.857734
WESTBY,3579,-35.664491,143.959219
KOONDROOK,3580,-35.64272,144.108584
LAKE CHARM,3581,-35.620733,143.804041
TRESCO,3583,-35.506577,143.638434
LAKE BOGA,3584,-35.461804,143.634454
TRESCO WEST,3584,-35.506577,143.638434
CASTLE DONNINGTON,3585,-35.418038,143.594275
CHILLINGOLLAH,3585,-35.26468,143.052602
FISH POINT,3585,-35.470738,143.731582
GOSCHEN,3585,-35.475922,143.452861
KUNAT,3585,-35.544116,143.527287
MEATIAN,3585,-35.574939,143.340748
NOWIE,3585,-35.327659,143.284705
NYRRABY,3585,-35.221087,143.223653
PIRA,3585,-35.257499,143.365648
POLISBET,3585,-35.271997,143.14734
SPEEWA,3585,-35.183898,143.523043
SWAN HILL,3585,-35.336175,143.560181
SWAN HILL WEST,3585,-35.383216,143.426576
WINLATON,3585,-35.482338,143.747049
BULGA,3586,-35.304516,143.359804
MURRAWEE,3586,-35.302364,143.51815
MURRAYDALE,3586,-35.287843,143.561504
PENTAL ISLAND,3586,-35.367472,143.583706
TYNTYNDER,3586,-35.248047,143.551389
TYNTYNDER SOUTH,3586,-35.264254,143.519178
WOORINEN SOUTH,3588,-35.270527,143.454012
WOORINEN,3589,-35.264373,143.471892
WOORINEN NORTH,3589,-35.236272,143.428828
BEVERFORD,3590,-35.235882,143.480953
VINIFERA,3591,-35.217734,143.405908
NYAH,3594,-35.152584,143.362249
NYAH WEST,3595,-35.187893,143.348862
MIRALIE,3596,-35.123806,143.327682
TOWAN,3596,-35.185934,143.196443
WOOD WOOD,3596,-35.10186,143.344549
KENLEY,3597,-34.856397,143.341123
KOOLOONONG,3597,-34.878403,143.147981
LAKE POWELL,3597,-34.714363,142.942108
NARRUNG,3597,-34.756012,143.190209
NATYA,3597,-34.958384,143.228835
PIANGIL,3597,-35.053788,143.31327
BOUNDARY BEND,3599,-34.742098,143.144838
TABILK,3607,-36.846437,145.199887
BAILIESTON,3608,-36.699872,145.034359
GOULBURN WEIR,3608,-36.714637,145.174232
GRAYTOWN,3608,-36.815207,144.955389
KIRWANS BRIDGE,3608,-36.744541,145.138681
MITCHELLSTOWN,3608,-36.859135,145.08518
NAGAMBIE,3608,-36.78568,145.153795
WAHRING,3608,-36.700006,145.206019
WIRRATE,3608,-36.767851,144.988693
DHURRINGILE,3610,-36.542846,145.277533
MOORILIM,3610,-36.625025,145.303783
MURCHISON,3610,-36.61912,145.217631
MURCHISON EAST,3610,-36.615276,145.240441
MURCHISON NORTH,3610,-36.560339,145.275539
MOORA,3612,-36.591412,144.948216
RUSHWORTH,3612,-36.585838,145.01552
WANALTA,3612,-36.596292,144.912319
WARANGA,3612,-36.535601,145.065066
WHROO,3612,-36.644141,145.022235
TOOLAMBA,3614,-36.484229,145.259357
TOOLAMBA WEST,3614,-36.484229,145.259357
COOMA,3616,-36.421146,145.068244
GILLIESTON,3616,-36.328333,145.222773
GIRGARRE EAST,3616,-36.443573,145.068304
HARSTON,3616,-36.454728,145.131787
MOOROOPNA NORTH WEST,3616,-36.350412,145.250067
TATURA,3616,-36.440085,145.227847
TATURA EAST,3616,-36.440102,145.295242
BYRNESIDE,3617,-36.416975,145.149914
MERRIGUM,3618,-36.372412,145.170237
KYABRAM,3619,-37.659566,144.936295
KYABRAM,3620,-36.308063,145.049552
KYABRAM SOUTH,3620,-36.387099,145.068133
LANCASTER,3620,-36.314977,145.132099
MOUNT SCOBIE,3620,-36.355289,144.995996
ST GERMAINS,3620,-36.240545,145.158176
WYUNA,3620,-36.199265,145.097262
WYUNA EAST,3620,-36.225349,145.103623
KOYUGA SOUTH,3621,-36.269418,144.850248
KY VALLEY,3621,-36.283644,145.005483
KY WEST,3621,-36.311817,144.981282
TONGALA,3621,-36.249386,144.948203
YAMBUNA,3621,-36.136283,144.990759
CORNELIA CREEK,3622,-36.161595,144.765651
KOYUGA,3622,-36.209813,144.909518
STRATHALLAN,3622,-36.25622,144.71465
CARAG CARAG,3623,-36.462334,144.904277
STANHOPE,3623,-36.447149,144.986652
STANHOPE SOUTH,3623,-36.491709,145.041038
GIRGARRE,3624,-36.443573,145.068304
ARDMONA,3629,-36.378536,145.295366
COOMBOONA,3629,-36.284356,145.295406
MOOROOPNA,3629,-36.394652,145.357817
MOOROOPNA NORTH,3629,-36.325338,145.301109
UNDERA,3629,-36.278158,145.222772
BRANDITT,3630,-36.360193,145.401927
CANIAMBO,3630,-36.492115,145.649789
COLLIVER,3630,-36.401942,145.401265
DUNKIRK,3630,-36.369576,145.409068
SHEPPARTON,3630,-36.381171,145.39929
SHEPPARTON SOUTH,3630,-36.402124,145.401233
ARCADIA,3631,-36.541604,145.362556
ARCADIA SOUTH,3631,-36.5996,145.3267
COSGROVE,3631,-36.355992,145.606784
COSGROVE SOUTH,3631,-36.417509,145.631415
GRAHAMVALE,3631,-36.347611,145.431786
KARRAMOMUS,3631,-36.527144,145.455292
KIALLA,3631,-36.441919,145.431805
KIALLA EAST,3631,-36.464199,145.49652
KIALLA WEST,3631,-36.493475,145.388775
LEMNOS,3631,-36.351412,145.462046
ORRVALE,3631,-36.41396,145.431825
PINE LODGE,3631,-36.456979,145.461908
SHEPPARTON EAST,3631,-36.401815,145.479949
SHEPPARTON NORTH,3631,-36.336826,145.40224
SHEPPARTON,3632,-36.544462,145.603242
CONGUPNA,3633,-36.299252,145.481126
BUNBARTHA,3634,-36.220101,145.344007
KATANDRA,3634,-36.246185,145.582937
KATANDRA WEST,3634,-36.232428,145.55947
MARIONVALE,3634,-36.25865,145.531711
MARUNGI,3634,-36.199134,145.533982
TALLYGAROOPNA,3634,-36.238901,145.436117
ZEERUST,3634,-36.276365,145.368701
KAARIMBA,3635,-36.16323,145.301771
MUNDOONA,3635,-36.157113,145.33179
WUNGHNU,3635,-36.155131,145.431715
DRUMANURE,3636,-36.135713,145.504192
INVERGORDON,3636,-36.180455,145.63162
NARING,3636,-36.059345,145.581672
NUMURKAH,3636,-36.092337,145.431743
WAAIA,3637,-36.05372,145.33176
YALCA,3637,-35.914425,145.290867
KOTUPNA,3638,-36.145467,145.165703
NATHALIA,3638,-36.060978,145.204023
YIELIMA,3638,-35.928348,145.231915
BARMAH,3639,-36.023458,144.973324
LOWER MOIRA,3639,-36.076784,144.991432
PICOLA,3639,-35.999051,145.117615
PICOLA WEST,3639,-35.963805,145.048359
KATUNGA,3640,-35.973776,145.460399
BEARII,3641,-35.918029,145.33172
MYWEE,3641,-35.871268,145.495204
STRATHMERTON,3641,-35.925386,145.47847
ULUPNA,3641,-35.833494,145.451827
COBRAM,3643,-35.955363,145.631874
COBRAM,3644,-35.916758,145.650715
COBRAM EAST,3644,-35.96547,145.708317
KOONOOMOO,3644,-35.860574,145.560223
MUCKATAH,3644,-36.026111,145.65516
YARROWEYAH,3644,-35.925467,145.577568
DOOKIE,3646,-36.327503,145.686223
MOUNT MAJOR,3646,-36.349401,145.703574
NALINGA,3646,-36.415956,145.710627
WAGGARANDALL,3646,-36.237009,145.79025
YABBA NORTH,3646,-36.208224,145.709655
YABBA SOUTH,3646,-36.280716,145.681571
YOUANMITE,3646,-36.156772,145.671252
DOOKIE COLLEGE,3647,-36.395102,145.703035
KATAMATITE,3649,-36.078387,145.688645
KATAMATITE EAST,3649,-36.026336,145.760116
BROADFORD,3658,-37.203001,145.050171
CLONBINANE,3658,-37.330335,145.089146
FLOWERDALE,3658,-37.344477,145.289109
HAZELDENE,3658,-37.342699,145.288895
REEDY CREEK,3658,-37.258908,145.126685
STRATH CREEK,3658,-37.236985,145.221193
SUNDAY CREEK,3658,-37.255734,145.0432
TYAAK,3658,-37.225402,145.135498
WATERFORD PARK,3658,-37.301237,145.066581
SUGARLOAF CREEK,3659,-37.128108,145.024365
TALLAROOK,3659,-37.093612,145.10303
CAVEAT,3660,-37.091133,145.495713
DROPMORE,3660,-37.018778,145.450602
DYSART,3660,-37.020272,145.111951
HIGHLANDS,3660,-37.072357,145.389341
KERRISDALE,3660,-37.143394,145.255997
KOBYBOYN,3660,-37.063101,145.377609
NORTHWOOD,3660,-36.944075,145.102963
SEYMOUR,3660,-37.025311,145.134148
SEYMOUR SOUTH,3660,-37.029592,145.155312
TRAWOOL,3660,-37.130706,145.240647
WHITEHEADS CREEK,3660,-37.02589,145.266554
SEYMOUR,3661,-38.195993,146.535346
MANGALORE,3663,-36.941616,145.161897
AVENEL,3664,-36.892793,145.23059
LOCKSLEY,3665,-36.81576,145.35517
LONGWOOD,3665,-36.802505,145.422992
PRANJIP,3665,-36.737023,145.374992
BALMATTUM,3666,-36.705961,145.640263
CREIGHTON,3666,-36.217201,145.600639
CREIGHTONS CREEK,3666,-36.89037,145.527792
EUROA,3666,-36.755892,145.571341
GOORAM,3666,-36.901225,145.584186
KELVIN VIEW,3666,-36.819963,145.659889
KITHBROOK,3666,-36.816064,145.731831
MIEPOLL,3666,-36.642365,145.479927
MOGLONEMBY,3666,-36.613772,145.531703
MOLKA,3666,-36.686993,145.431866
RIGGS CREEK,3666,-36.66304,145.607032
RUFFY,3666,-36.975102,145.501286
SHEANS CREEK,3666,-36.773071,145.652156
STRATHBOGIE,3666,-36.855417,145.735508
TARCOMBE,3666,-36.976981,145.369449
BOHO,3669,-36.696659,145.771354
BOHO SOUTH,3669,-36.774523,145.786315
CREEK JUNCTION,3669,-36.811284,145.81984
EARLSTON,3669,-36.543553,145.695024
GOWANGARDIE,3669,-36.475733,145.717853
KOONDA,3669,-36.517272,145.732214
MARRAWEENEY,3669,-36.747903,145.745417
TAMLEUGH,3669,-36.604087,145.62791
TAMLEUGH NORTH,3669,-36.49907,145.555697
VIOLET TOWN,3669,-36.638934,145.722978
BADDAGINNIE,3670,-36.592633,145.861036
TARNOOK,3670,-36.520934,145.859259
WARRENBAYNE,3670,-36.688365,145.890379
BENALLA,3671,-36.385144,145.420691
BENALLA,3672,-36.546895,145.98565
BENALLA WEST,3672,-36.560198,145.969678
BROKEN CREEK,3673,-36.434779,145.890351
GOOMALIBEE,3673,-36.465348,145.859474
LIMA,3673,-36.72564,145.957764
LIMA EAST,3673,-36.77625,145.989094
LIMA SOUTH,3673,-36.837181,146.007067
LURG,3673,-36.58525,146.131035
MOLYULLAH,3673,-36.661539,146.154132
MOORNGAG,3673,-36.751369,146.051927
SAMARIA,3673,-36.790815,146.083645
SWANPOOL,3673,-36.778041,145.990867
TATONG,3673,-36.73353,146.103627
UPOTIPOTPON,3673,-36.503385,145.777325
UPPER LURG,3673,-36.587278,146.181538
UPPER RYANS CREEK,3673,-36.712591,146.216647
WINTON,3673,-36.52894,146.090075
WINTON NORTH,3673,-36.473862,146.135478
BOWEYA,3675,-36.269789,146.131319
BOWEYA NORTH,3675,-36.199518,146.080865
GLENROWAN,3675,-36.463898,146.222613
GLENROWAN WEST,3675,-36.473376,146.17646
GRETA,3675,-36.549599,146.275316
GRETA SOUTH,3675,-36.638847,146.237173
GRETA WEST,3675,-36.533299,146.226164
HANSONVILLE,3675,-36.573708,146.325419
MOUNT BRUNO,3675,-36.312208,146.154121
TAMINICK,3675,-36.405291,146.163159
WANGARATTA,3676,-36.341245,146.338612
APPIN PARK,3677,-36.353243,146.297244
WANGARATTA,3677,-36.335434,146.341645
WANGARATTA WEST,3677,-36.353243,146.297244
YARRUNGA,3677,-36.372152,146.317325
BOBINAWARRAH,3678,-36.521737,146.498737
BOORHAMAN,3678,-36.230384,146.304461
BOORHAMAN EAST,3678,-36.176096,146.314773
BOWSER,3678,-36.314617,146.364425
BYAWATHA,3678,-36.287608,146.448151
CARBOOR,3678,-36.596229,146.522339
CHESHUNT,3678,-36.798752,146.427829
CHESHUNT SOUTH,3678,-36.917674,146.395871
DOCKER,3678,-36.517798,146.400836
DOCKERS PLAINS,3678,-36.28765,146.338007
EAST WANGARATTA,3678,-36.362926,146.380273
EDI,3678,-36.652345,146.420808
EDI UPPER,3678,-36.701045,146.48724
EVERTON,3678,-36.442921,146.554145
EVERTON UPPER,3678,-36.377042,146.570184
KILLAWARRA,3678,-36.261795,146.248744
KING VALLEY,3678,-36.700879,146.416954
LACEBY,3678,-36.415491,146.296
LONDRIGAN,3678,-36.359305,146.401952
MARKWOOD,3678,-36.479803,146.492022
MEADOW CREEK,3678,-36.626444,146.474669
MILAWA,3678,-36.449674,146.43134
NORTH WANGARATTA,3678,-36.335434,146.341645
OXLEY,3678,-36.443693,146.383011
OXLEY FLATS,3678,-36.397941,146.390633
PEECHELBA,3678,-36.197179,146.236626
PEECHELBA EAST,3678,-36.168929,146.251265
ROSE RIVER,3678,-36.834619,146.578328
TARRAWINGEE,3678,-36.389722,146.455121
WABONGA,3678,-37.095056,146.556206
WALDARA,3678,-36.327604,146.289926
WANGANDARY,3678,-36.307351,146.27616
WANGARATTA SOUTH,3678,-36.373154,146.310507
WHITLANDS,3678,-36.772644,146.359642
BORALMA,3682,-36.243951,146.411677
LILLIPUT,3682,-36.121433,146.471635
NORONG,3682,-36.133125,146.323002
SPRINGHURST,3682,-36.184998,146.469199
CHILTERN,3683,-36.148307,146.610311
CHILTERN VALLEY,3683,-36.142047,146.545719
CORNISHTOWN,3683,-36.102317,146.540316
BOORHAMAN NORTH,3685,-36.098847,146.222359
BRIMIN,3685,-36.050476,146.227708
BROWNS PLAINS,3685,-36.047076,146.632723
CARLYLE,3685,-35.996711,146.484777
GOORAMADDA,3685,-35.998465,146.574779
GREAT SOUTHERN,3685,-36.074581,146.490354
LAKE MOODEMERE,3685,-36.048737,146.380888
RUTHERGLEN,3685,-36.053735,146.459262
WAHGUNYAH,3687,-36.011553,146.40193
BARNAWARTHA,3688,-36.105488,146.673164
INDIGO VALLEY,3688,-36.180108,146.718878
WODONGA,3689,-37.67576,144.989793
WEST WODONGA,3690,-36.099768,146.821149
WODONGA,3690,-36.125544,146.888062
WODONGA PLAZA,3690,-36.122279,146.886847
ALLANS FLAT,3691,-36.276114,146.909823
BARANDUDA,3691,-36.196214,146.96844
BARNAWARTHA NORTH,3691,-36.067175,146.727029
BELLBRIDGE,3691,-36.09841,147.059863
BERRINGAMA,3691,-36.213728,147.67641
BETHANGA,3691,-36.123343,147.096743
BONEGILLA,3691,-36.140321,147.006996
BUNGIL,3691,-36.032591,147.353015
CASTLE CREEK,3691,-36.183374,146.827113
CORAL BANK,3691,-36.605177,147.095723
DEDERANG,3691,-36.482934,147.033061
EBDEN,3691,-36.148319,147.020832
GATEWAY ISLAND,3691,-36.09625,146.896737
GLEN CREEK,3691,-36.437041,146.943648
GUNDOWRING,3691,-36.405706,147.062899
HUME WEIR,3691,-36.102131,147.021876
HUON CREEK,3691,-36.155912,146.82033
KANCOONA,3691,-36.558,146.977219
KERGUNYAH,3691,-36.327114,147.028202
KERGUNYAH SOUTH,3691,-36.436723,147.025753
KIEWA,3691,-36.257773,147.006831
KILLARA,3691,-36.139381,146.952314
LENEVA,3691,-36.214108,146.880042
LUCYVALE,3691,-36.274158,147.627143
MONGANS BRIDGE,3691,-36.589545,147.117858
OSBORNES FLAT,3691,-36.3071,146.902994
RUNNING CREEK,3691,-36.531815,147.050623
STAGHORN FLAT,3691,-36.25221,146.922805
TALGARNO,3691,-36.080394,147.192407
TANGAMBALANGA,3691,-36.252161,147.030914
THOLOGOLONG,3691,-35.98891,147.421073
UPPER GUNDOWRING,3691,-36.488999,147.068363
BANDIANA,3694,-36.141317,146.916596
BANDIANA MILPO,3694,-36.146982,146.90818
CHARLEROI,3695,-36.30384,147.139316
HUON,3695,-36.220609,147.066979
RED BLUFF,3695,-37.962451,145.013918
SANDY CREEK,3695,-36.32541,147.10458
TAWONGA,3697,-36.66901,147.205089
BOGONG,3699,-36.80517,147.224996
FALLS CREEK,3699,-36.862994,147.279405
MOUNT BEAUTY,3699,-36.744505,147.171354
BULLIOH,3700,-36.175761,147.338065
GEORGES CREEK,3700,-36.150939,147.257561
JARVIS CREEK,3700,-36.183484,147.224125
TALLANGATTA,3700,-36.264169,147.234124
TALLANGATTA EAST,3700,-36.213658,147.258712
DARTMOUTH,3701,-36.533461,147.497235
ESKDALE,3701,-36.465156,147.250151
FERNVALE,3701,-36.338783,147.287466
GRANYA,3701,-36.097534,147.318341
MITTA MITTA,3701,-36.536849,147.376953
SHELLEY,3701,-36.177054,147.549447
TALLANGATTA VALLEY,3701,-36.268352,147.304527
KOETONG,3704,-36.104644,147.538225
CUDGEWA,3705,-36.190684,147.771573
BIGGARA,3707,-36.279153,148.025563
COLAC COLAC,3707,-36.249427,147.82878
CORRYONG,3707,-36.196814,147.905135
NARIEL VALLEY,3707,-36.444618,147.828819
THOWGLA VALLEY,3707,-36.27,147.928
TOM GROGGIN,3707,-36.538451,148.13525
TOWONG,3707,-36.194474,148.019337
TOWONG UPPER,3707,-36.199415,148.020548
TINTALDRA,3708,-36.048986,147.930952
BURROWYE,3709,-36.048847,147.561427
GUYS FOREST,3709,-36.059935,147.633767
MOUNT ALFRED,3709,-35.966849,147.632531
PINE MOUNTAIN,3709,-36.01266,147.835835
WALWA,3709,-35.963832,147.737074
BUXTON,3711,-37.420458,145.712999
RUBICON,3712,-37.326297,145.862023
THORNTON,3712,-37.255054,145.799038
EILDON,3713,-37.234547,145.910525
LAKE EILDON,3713,-37.187831,145.981618
ACHERON,3714,-37.252433,145.702015
ALEXANDRA,3714,-37.191307,145.711061
CATHKIN,3714,-37.14108,145.589081
CRYSTAL CREEK,3714,-37.272362,145.629068
FAWCETT,3714,-37.113187,145.700915
KORIELLA,3714,-37.151763,145.650622
TAGGERTY,3714,-37.321513,145.711979
ANCONA,3715,-36.972266,145.790539
MERTON,3715,-36.983356,145.727025
WOODFIELD,3715,-37.016398,145.793869
FLOWERDALE,3717,-37.344477,145.289109
GHIN GHIN,3717,-37.131302,145.378462
GLENBURN,3717,-37.405893,145.453724
HOMEWOOD,3717,-37.202613,145.35652
KILLINGWORTH,3717,-37.17841,145.423769
LIMESTONE,3717,-37.26528,145.484784
MURRINDINDI,3717,-37.318809,145.500153
YEA,3717,-37.212247,145.42388
MOLESWORTH,3718,-37.127985,145.525714
GOBUR,3719,-37.014402,145.617965
KANUMBRA,3719,-37.044608,145.671963
TERIP TERIP,3719,-36.975045,145.573589
YARCK,3719,-37.1095,145.610757
BONNIE DOON,3720,-37.023006,145.86227
BARWITE,3722,-37.009455,146.21744
MANSFIELD,3722,-37.052322,146.087887
MIRIMBAH,3722,-37.110291,146.39794
ARCHERTON,3723,-36.894465,146.256507
BARJARG,3723,-36.9152,145.976846
BOOROLITE,3723,-37.14961,146.190771
BRIDGE CREEK,3723,-36.970671,146.106841
DELATITE,3723,-37.139169,146.169012
GAFFNEYS CREEK,3723,-37.476918,146.19041
GOUGHS BAY,3723,-37.176707,146.063541
HOWES CREEK,3723,-37.140312,146.023759
HOWQUA,3723,-37.244056,146.192484
HOWQUA HILLS,3723,-37.182906,146.318508
HOWQUA INLET,3723,-37.323661,146.228358
JAMIESON,3723,-37.300724,146.13588
KEVINGTON,3723,-37.359361,146.164392
MACS COVE,3723,-37.211644,146.139441
MAINDAMPLE,3723,-37.02887,145.938802
MATLOCK,3723,-37.599907,146.209096
MERRIJIG,3723,-37.102605,146.262449
MOUNT BULLER,3723,-37.146357,146.449411
MOUNTAIN BAY,3723,-37.198272,146.09508
NILLAHCOOTIE,3723,-36.911275,146.01029
PIRIES,3723,-37.150571,146.128223
SAWMILL SETTLEMENT,3723,-37.107538,146.35844
TOLMIE,3723,-36.901023,146.264373
WOODS POINT,3723,-37.430754,146.101369
MANSFIELD,3724,-37.053108,146.076832
BOXWOOD,3725,-36.323886,145.79839
CHESNEY VALE,3725,-36.414021,146.058823
GOORAMBAT,3725,-36.406798,145.920558
MAJOR PLAINS,3725,-36.349441,145.77095
STEWARTON,3725,-36.415919,145.781043
BUNGEET,3726,-36.28166,146.057876
BUNGEET WEST,3726,-36.364228,146.00278
DEVENISH,3726,-36.330105,145.894488
THOONA,3726,-36.340096,146.077226
ALMONDS,3727,-36.232281,146.056216
LAKE ROWAN,3727,-36.269962,146.002999
PELLUEBLA,3727,-36.199057,145.967255
ST JAMES,3727,-36.240806,145.895092
YUNDOOL,3727,-36.266356,145.798468
BOOMAHNOOMOONAH,3728,-36.099254,146.084897
TUNGAMAH,3728,-36.164221,145.877533
WILBY,3728,-36.155984,146.016645
YOUARANG,3728,-36.170922,145.748141
BATHUMI,3730,-36.026715,146.084897
BOOSEY,3730,-36.05528,145.795859
BUNDALONG,3730,-36.044275,146.166545
BUNDALONG SOUTH,3730,-36.096227,146.189596
BURRAMINE,3730,-35.995232,145.895321
BURRAMINE SOUTH,3730,-36.055294,145.83174
ESMOND,3730,-36.062095,146.184323
TELFORD,3730,-36.099114,145.941368
YARRAWONGA,3730,-36.011038,146.004643
YARRAWONGA SOUTH,3730,-36.084514,146.013678
MOYHU,3732,-36.578223,146.378463
MYRRHEE,3732,-36.73295,146.320538
WHITFIELD,3733,-36.749752,146.413426
BOWMANS FOREST,3735,-36.520364,146.577229
WHOROULY,3735,-36.505078,146.588659
WHOROULY EAST,3735,-36.536719,146.634377
WHOROULY SOUTH,3735,-36.592415,146.603849
MYRTLEFORD,3736,-36.455136,146.479489
ABBEYARD,3737,-36.976415,146.782515
BARWIDGEE,3737,-36.511933,146.772708
BUFFALO RIVER,3737,-36.625245,146.686195
DANDONGADALE,3737,-36.786382,146.665855
GAPSTED,3737,-36.521371,146.680455
HAVILAH,3737,-36.619611,146.896759
MERRIANG,3737,-36.55562,146.68284
MERRIANG SOUTH,3737,-36.587181,146.698602
MUDGEGONGA,3737,-36.489682,146.865788
MYRTLEFORD,3737,-36.560863,146.723897
NUG NUG,3737,-36.663597,146.716713
ROSEWHITE,3737,-36.59467,146.86208
SELWYN,3737,-37.1014,147.001465
WONNANGATTA,3737,-37.1217,146.852832
OVENS,3738,-36.606337,146.792102
EUROBIN,3739,-36.703255,146.84579
BUCKLAND,3740,-36.815383,146.852777
MOUNT BUFFALO,3740,-36.711069,146.794642
POREPUNKAH,3740,-36.700039,146.908542
BRIGHT,3741,-36.727237,146.960491
FREEBURGH,3741,-36.772777,147.029714
GERMANTOWN,3741,-36.727982,147.037733
HARRIETVILLE,3741,-36.89203,147.064023
HOTHAM HEIGHTS,3741,-36.985432,147.146799
SMOKO,3741,-36.83571,147.076347
WANDILIGONG,3744,-36.753565,146.982157
ELDORADO,3746,-36.30376,146.584447
BEECHWORTH,3747,-36.360341,146.687966
MURMUNGEE,3747,-36.480594,146.644202
STANLEY,3747,-36.404888,146.755253
WOOLSHED,3747,-36.309145,146.616346
WOORAGEE,3747,-36.290725,146.721409
BRUARONG,3749,-36.414545,146.862235
YACKANDANDAH,3749,-36.31297,146.837903
WOLLERT,3750,-38.380955,144.811911
WOODSTOCK,3751,-37.692001,144.885657
MORANG SOUTH,3752,-37.653074,145.095043
SOUTH MORANG,3752,-37.653074,145.095043
BEVERIDGE,3753,-37.468668,144.996239
DOREEN,3754,-37.617671,145.154899
MERNDA,3754,-37.594769,145.101581
YAN YEAN,3755,-37.572602,145.144089
CHINTIN,3756,-37.402359,144.80284
DARRAWEIT GUIM,3756,-37.394874,144.911512
HIDDEN VALLEY,3756,-37.395549,144.994497
UPPER PLENTY,3756,-37.419179,145.039763
WALLAN,3756,-37.413086,144.979394
WALLAN EAST,3756,-37.419152,145.004297
BRUCES CREEK,3757,-37.450676,145.106435
EDEN PARK,3757,-37.493854,145.056027
HUMEVALE,3757,-37.484971,145.192485
KINGLAKE CENTRAL,3757,-37.499561,145.306244
KINGLAKE WEST,3757,-37.476703,145.235661
PHEASANT CREEK,3757,-37.481507,145.278824
WHITTLESEA,3757,-37.513714,145.115089
HEATHCOTE JUNCTION,3758,-37.383,145.029955
WANDONG,3758,-37.354959,145.026246
PANTON HILL,3759,-37.641394,145.240086
SMITHS GULLY,3760,-37.620131,145.287916
KINGLAKE,3763,-37.481664,145.277344
MOUNT SLIDE,3763,-37.542913,145.38485
FORBES,3764,-37.31432,144.889007
GLENAROUA,3764,-37.091334,144.991296
HIGH CAMP,3764,-37.180324,144.889494
KILMORE,3764,-37.296087,144.952105
KILMORE EAST,3764,-37.290344,144.986752
MORANDING,3764,-37.233934,144.951851
TANTARABOO,3764,-37.233885,144.827702
WILLOWMAVIN,3764,-37.262384,144.908412
MONTROSE,3765,-37.805976,145.339514
KALORAMA,3766,-37.816839,145.367371
MOUNT DANDENONG,3767,-37.835062,145.357831
COLDSTREAM,3770,-37.724701,145.378596
GRUYERE,3770,-37.746276,145.44131
YERING,3770,-37.69492,145.373266
CHRISTMAS HILLS,3775,-37.650855,145.317827
DIXONS CREEK,3775,-37.60148,145.418498
STEELS CREEK,3775,-37.593579,145.373671
TARRAWARRA,3775,-37.654341,145.441944
YARRA GLEN,3775,-37.658494,145.374347
BADGER CREEK,3777,-37.686067,145.541351
CASTELLA,3777,-37.526926,145.42013
CHUM CREEK,3777,-37.601134,145.489368
HEALESVILLE,3777,-37.654137,145.516188
MOUNT TOOLEBEWONG,3777,-37.702056,145.570501
TOOLANGI,3777,-37.555763,145.478234
FERNSHAW,3778,-37.632252,145.699176
NARBETHONG,3778,-37.563734,145.656392
CAMBARVILLE,3779,-37.560312,145.885335
MARYSVILLE,3779,-37.510449,145.74749
COCKATOO,3781,-37.93626,145.49137
MOUNT BURNETT,3781,-37.974799,145.511405
NANGANA,3781,-37.875796,145.528585
AVONSLEIGH,3782,-37.920702,145.467246
CLEMATIS,3782,-37.929232,145.423339
EMERALD,3782,-37.932085,145.44074
MACCLESFIELD,3782,-37.888403,145.487688
GEMBROOK,3783,-37.952497,145.550457
TREMONT,3785,-38.27059,144.491163
FERNY CREEK,3786,-37.881284,145.342274
SASSAFRAS,3787,-37.876027,145.36695
SASSAFRAS GULLY,3787,-37.894848,145.335854
OLINDA,3788,-37.85984,145.363835
SHERBROOKE,3789,-37.883737,145.364031
KALLISTA,3791,-37.900585,145.410171
THE PATCH,3792,-37.887353,145.392574
MONBULK,3793,-37.867678,145.408664
SILVAN,3795,-37.844151,145.413447
MOUNT EVELYN,3796,-37.792515,145.375605
GILDEROY,3797,-37.855038,145.711284
GLADYSDALE,3797,-37.825378,145.656832
POWELLTOWN,3797,-37.863663,145.753605
THREE BRIDGES,3797,-37.840599,145.679651
YARRA JUNCTION,3797,-37.781435,145.613406
BIG PATS CREEK,3799,-37.763917,145.746221
EAST WARBURTON,3799,-37.744469,145.731978
MCMAHONS CREEK,3799,-37.701895,145.830782
MILLGROVE,3799,-37.75513,145.652844
REEFTON,3799,-37.643595,145.870434
WARBURTON,3799,-37.753701,145.689017
WESBURN,3799,-37.774889,145.643922
MONASH UNIVERSITY,3800,-37.910545,145.134935
ENDEAVOUR HILLS,3802,-37.975281,145.254481
HALLAM,3803,-38.004302,145.269261
NARRE WARREN EAST,3804,-37.96602,145.363213
NARRE WARREN NORTH,3804,-37.981131,145.315271
FOUNTAIN GATE,3805,-38.021278,145.299771
NARRE WARREN,3805,-38.026383,145.306933
NARRE WARREN SOUTH,3805,-38.050061,145.298191
BERWICK,3806,-38.030467,145.344621
HARKAWAY,3806,-38.000318,145.341643
BEACONSFIELD,3807,-38.045159,145.36746
GUYS HILL,3807,-38.016778,145.386086
BEACONSFIELD UPPER,3808,-38.004643,145.409755
DEWHURST,3808,-37.990595,145.424722
OFFICER,3809,-38.063056,145.40958
OFFICER SOUTH,3809,-38.111715,145.423528
PAKENHAM,3810,-38.077355,145.493402
PAKENHAM SOUTH,3810,-38.133232,145.507761
PAKENHAM UPPER,3810,-38.011744,145.512439
RYTHDALE,3810,-38.150379,145.459534
MARYKNOLL,3812,-38.035781,145.609548
NAR NAR GOON,3812,-38.08098,145.570294
NAR NAR GOON NORTH,3812,-38.0173,145.557382
TYNONG,3813,-38.085068,145.625456
TYNONG NORTH,3813,-38.058222,145.60884
CORA LYNN,3814,-38.145284,145.60591
GARFIELD,3814,-38.092171,145.677004
GARFIELD NORTH,3814,-38.042767,145.676508
VERVALE,3814,-38.131185,145.669793
BUNYIP,3815,-38.09708,145.715492
BUNYIP NORTH,3815,-38.06115,145.714902
IONA,3815,-38.123346,145.70413
TONIMBUK,3815,-38.005952,145.708661
LABERTOUCHE,3816,-38.049843,145.82875
LONGWARRY,3816,-38.111317,145.771421
LONGWARRY NORTH,3816,-38.081642,145.778367
MODELLA,3816,-38.187327,145.708991
ATHLONE,3818,-38.239904,145.779817
DROUIN,3818,-38.136919,145.858699
DROUIN EAST,3818,-38.138303,145.895257
DROUIN SOUTH,3818,-38.17188,145.824714
DROUIN WEST,3818,-38.090113,145.868741
HALLORA,3818,-38.27078,145.833039
JINDIVICK,3818,-38.026908,145.898815
RIPPLEBROOK,3818,-38.200072,145.772545
BONA VISTA,3820,-38.206715,145.964873
LILLICO,3820,-38.122703,145.983115
WARRAGUL,3820,-38.163058,145.93086
BRANDY CREEK,3821,-38.099914,145.923506
BRAVINGTON,3821,-38.085346,145.922066
BULN BULN,3821,-38.100719,145.949167
BULN BULN EAST,3821,-38.086402,145.992089
CROSSOVER,3821,-38.054288,145.966395
ELLINBANK,3821,-38.245707,145.91314
FERNDALE,3821,-38.308634,145.939157
LARDNER,3821,-38.205796,145.878189
NILMA,3821,-38.170513,145.968378
NILMA NORTH,3821,-38.145033,145.986225
ROKEBY,3821,-38.073272,145.929924
SEAVIEW,3821,-38.278767,145.955178
SHADY CREEK,3821,-38.100838,146.08296
TETOORA ROAD,3821,-38.270325,145.893607
WARRAGUL SOUTH,3821,-38.183474,145.889384
WARRAGUL WEST,3821,-38.164126,145.890104
CLOVERLEA,3822,-38.244952,145.999245
DARNUM,3822,-38.187606,146.005385
GAINSBOROUGH,3822,-38.243576,145.96534
ALLAMBEE,3823,-38.263213,146.034059
YARRAGON,3823,-38.203886,146.068772
YARRAGON SOUTH,3823,-38.208264,146.076751
CHILDERS,3824,-38.298917,146.114577
NARRACAN,3824,-38.260828,146.228396
THORPDALE SOUTH,3824,-38.331875,146.118691
TRAFALGAR,3824,-38.20803,146.151382
TRAFALGAR EAST,3824,-38.179753,146.147252
TRAFALGAR SOUTH,3824,-38.259301,146.229362
ABERFELDY,3825,-37.696566,146.364064
AMOR,3825,-37.941242,146.399804
BOOLA,3825,-38.052535,146.465334
CARINGAL,3825,-37.94669,146.345252
COALVILLE,3825,-38.236898,146.262749
COOPERS CREEK,3825,-37.985345,146.427424
ERICA,3825,-37.975325,146.371889
FUMINA,3825,-37.902215,146.113275
FUMINA SOUTH,3825,-37.959418,146.135163
HERNES OAK,3825,-38.195589,146.325844
HILL END,3825,-38.003232,146.14471
JACOB CREEK,3825,-37.998726,146.398222
JERICHO,3825,-37.636916,146.270386
MOE,3825,-38.176609,146.264851
MOE SOUTH,3825,-38.210768,146.250036
MOONDARRA,3825,-38.016343,146.366848
NEWBOROUGH,3825,-38.183607,146.288321
NEWBOROUGH EAST,3825,-38.179735,146.267763
RAWSON,3825,-37.9573,146.399139
TANJIL,3825,-37.943184,146.208715
TANJIL SOUTH,3825,-38.113688,146.251572
THALLOO,3825,-38.088974,146.30874
THOMSON,3825,-37.74414,146.376278
TOOMBON,3825,-37.738005,146.402938
WALHALLA,3825,-37.939603,146.451288
WESTBURY,3825,-38.144223,146.216805
WILLOW GROVE,3825,-38.072343,146.17846
YALLOURN,3825,-38.18582,146.345746
YALLOURN NORTH,3825,-38.163903,146.362001
NEERIM,3831,-37.962769,145.993328
NEERIM EAST,3831,-37.977249,145.97677
NEERIM SOUTH,3831,-38.016643,145.954579
NAYOOK,3832,-37.9133,145.9339
NEERIM JUNCTION,3832,-37.936324,145.959021
NEERIM NORTH,3832,-37.918904,146.004304
ADA,3833,-37.84087,145.849688
BAW BAW,3833,-37.836059,146.259948
BAW BAW VILLAGE,3833,-37.845666,145.995025
GENTLE ANNIE,3833,-37.947431,145.836402
ICY CREEK,3833,-37.883797,146.096614
LOCH VALLEY,3833,-37.796392,146.010196
MT BAW BAW,3833,-37.887228,146.075813
NOOJEE,3833,-37.891422,145.998533
PIEDMONT,3833,-37.896704,145.957863
TANJIL BREN,3833,-37.836888,146.202667
TOORONGO,3833,-37.788186,146.121146
VESPER,3833,-37.864798,146.078864
THORPDALE,3835,-38.331875,146.118691
DRIFFIELD,3840,-38.278708,146.321254
HAZELWOOD,3840,-38.298154,146.353163
HAZELWOOD NORTH,3840,-38.266522,146.476084
HAZELWOOD SOUTH,3840,-38.301804,146.367996
JEERALANG,3840,-38.405751,146.477884
JEERALANG JUNCTION,3840,-38.338625,146.41244
MARYVALE,3840,-38.168472,146.412102
MID VALLEY,3840,-38.237352,146.427136
MORWELL,3840,-38.23681,146.398703
MORWELL EAST,3840,-38.245277,146.393007
MORWELL UPPER,3840,-38.222371,146.397265
CHURCHILL,3842,-38.321315,146.417986
BLACKWARRY,3844,-38.406405,146.637984
CALLIGNEE,3844,-38.37721,146.603156
CALLIGNEE NORTH,3844,-38.321442,146.617446
CARRAJUNG,3844,-38.374056,146.685294
FLYNN,3844,-38.167987,146.696019
FLYNNS CREEK,3844,-38.237594,146.646467
KOORNALLA,3844,-38.305466,146.534111
LOY YANG,3844,-38.249633,146.578088
MOUNT TASSIE,3844,-38.386012,146.565787
TRARALGON,3844,-38.193322,146.538373
TRARALGON EAST,3844,-38.18958,146.568559
TRARALGON SOUTH,3844,-38.293304,146.534395
TYERS,3844,-38.14887,146.481207
WILLUNG SOUTH,3844,-38.345677,146.720314
HIAMDALE,3847,-38.26363,146.753319
NAMBROK,3847,-38.086656,146.853056
ROSEDALE,3847,-38.151336,146.786824
WILLUNG,3847,-38.249903,146.822327
GIFFARD,3850,-38.415897,147.083536
SALE,3850,-38.109349,147.068418
SALE NORTH,3850,-38.093434,147.074654
WURRUK,3850,-38.105688,147.035114
AIRLY,3851,-38.035548,147.084398
BUNDALAGUAH,3851,-38.026749,147.013205
CLYDEBANK,3851,-38.056056,147.209051
COBAINS,3851,-38.076263,147.140669
DARRIMAN,3851,-38.433569,146.955368
DUTSON,3851,-38.180661,147.233077
DUTSON DOWNS,3851,-38.201204,147.315655
FLAMINGO BEACH,3851,-38.282437,147.310404
FULHAM,3851,-38.098903,146.977064
GIFFARD WEST,3851,-38.379083,146.996022
GLOMAR BEACH,3851,-38.300661,147.28461
GOLDEN BEACH,3851,-38.211293,147.400355
KILMANY,3851,-38.111797,146.89434
LAKE WELLINGTON,3851,-38.093591,147.319118
LOCH SPORT,3851,-38.057683,147.568397
LONGFORD,3851,-38.174621,147.088205
MONTGOMERY,3851,-38.043286,147.062681
MYRTLEBANK,3851,-38.064893,147.02898
PARADISE BEACH,3851,-38.19735,147.416838
PEARSONDALE,3851,-38.13605,147.032582
SEACOMBE,3851,-38.132126,147.400683
SEASPRAY,3851,-38.376489,147.190459
SOMERTON PARK,3851,-38.081355,147.100735
STRADBROKE,3851,-38.249195,147.054141
THE HEART,3851,-38.101324,147.213554
THE HONEYSUCKLES,3851,-38.243608,147.130062
EAST SALE RAAF,3852,-38.106731,147.134356
SALE,3853,-38.095569,146.059953
GLENGARRY,3854,-38.124641,146.573643
GLENGARRY NORTH,3854,-38.105926,146.590465
GLENGARRY WEST,3854,-38.152645,146.518946
TOONGABBIE,3856,-38.066096,146.670202
COWWARR,3857,-38.003449,146.688721
DAWSON,3858,-37.974475,146.689838
DENISON,3858,-38.012479,146.808321
GLEN FALLOCH,3858,-37.693042,146.611611
GLENMAGGIE,3858,-37.894681,146.749993
HEYFIELD,3858,-37.978486,146.784349
LICOLA,3858,-37.626943,146.623726
LICOLA NORTH,3858,-37.516855,146.519643
SEATON,3858,-37.934836,146.660813
TAMBORITHA,3858,-37.462036,146.714289
WINNINDOO,3858,-38.031505,146.766121
MAFFRA WEST UPPER,3859,-37.886136,146.848259
MEWBURN PARK,3859,-37.952726,146.936208
NEWRY,3859,-37.923124,146.890459
TINAMBA,3859,-37.962211,146.891796
TINAMBA WEST,3859,-37.922586,146.841053
BOISDALE,3860,-37.880398,146.987326
BRIAGOLONG,3860,-37.843462,147.06798
BUSHY PARK,3860,-37.862478,147.010681
COONGULLA,3860,-37.893352,146.786827
MAFFRA,3860,-37.966701,146.975445
NUNTIN,3860,-38.224369,146.430136
RIVERSLEA,3860,-38.011789,146.935746
VALENCIA CREEK,3860,-37.834649,146.982729
CASTLEBURN,3862,-37.573541,147.187425
COBBANNAH,3862,-37.62722,147.207559
CROOKED RIVER,3862,-37.387647,147.106614
DARGO,3862,-37.279921,147.30201
HAWKHURST,3862,-37.423056,147.120095
LLOWALONG,3862,-37.918808,147.075738
MEERLIEU,3862,-38.002228,147.391595
MUNRO,3862,-37.925194,147.185405
PERRY BRIDGE,3862,-38.001149,147.225366
STOCKDALE,3862,-37.782622,147.203663
STRATFORD,3862,-37.966108,147.080128
WATERFORD,3862,-37.515637,147.204588
FERNBANK,3864,-37.860878,147.341513
GLENALADALE,3864,-37.73109,147.313351
THE FINGERBOARD,3864,-38.326496,142.115859
LINDENOW,3865,-37.800359,147.458491
JUMBUK,3869,-38.398143,146.424652
YINNAR,3869,-38.32212,146.327779
YINNAR SOUTH,3869,-38.388731,146.376374
BOOLARRA,3870,-38.378924,146.275377
BOOLARRA SOUTH,3870,-38.445642,146.263091
BUDGEREE,3870,-38.422532,146.363744
GRAND RIDGE,3870,-38.492506,146.440941
MIRBOO EAST,3870,-38.445603,146.199917
ALLAMBEE RESERVE,3871,-38.285262,146.054894
ALLAMBEE SOUTH,3871,-38.343735,146.099585
BAROMI,3871,-38.403622,146.176387
DARLIMURLA,3871,-38.370717,146.21074
DELBURN,3871,-38.332631,146.228385
MIRBOO,3871,-38.472256,146.207687
MIRBOO NORTH,3871,-38.401141,146.16144
GORMANDALE,3873,-38.285925,146.719797
CARRAJUNG SOUTH,3874,-38.379257,146.791268
MCLOUGHLINS BEACH,3874,-38.602848,146.885846
WOODSIDE,3874,-38.517851,146.88041
WOODSIDE BEACH,3874,-38.551218,146.971664
WOODSIDE NORTH,3874,-38.423615,146.820988
BAIRNSDALE,3875,-37.825114,147.628962
BENGWORDEN,3875,-37.973828,147.465331
BROADLANDS,3875,-37.838378,147.683316
BULLUMWAAL,3875,-37.646972,147.531893
CALULU,3875,-37.786277,147.508519
CLIFTON CREEK,3875,-37.706576,147.657848
DEPTFORD,3875,-37.601708,147.671789
EAST BAIRNSDALE,3875,-37.823828,147.644156
ELLASWOOD,3875,-37.787545,147.570516
FAIRY DELL,3875,-37.695347,147.76769
FLAGGY CREEK,3875,-37.753902,147.487723
FORGE CREEK,3875,-37.903871,147.625366
GOON NURE,3875,-37.960988,147.538336
GRANITE ROCK,3875,-37.766891,147.704263
HILLSIDE,3875,-37.830936,147.470591
HOLLANDS LANDING,3875,-38.042434,147.46513
IGUANA CREEK,3875,-37.761015,147.355471
LINDENOW SOUTH,3875,-37.825191,147.434619
LUCKNOW,3875,-37.793444,147.670367
MELWOOD,3875,-37.732399,147.510959
MERRIJIG,3875,-37.661965,147.471078
MOUNT TAYLOR,3875,-37.749093,147.557408
NEWLANDS ARM,3875,-37.924128,147.69801
SARSFIELD,3875,-37.7502,147.733422
TABBERABBERA,3875,-37.549745,147.351288
WALPA,3875,-37.79673,147.429275
WATERHOLES,3875,-37.652678,147.727844
WOODGLEN,3875,-37.770816,147.394164
WUK WUK,3875,-37.770288,147.417441
WY YUNG,3875,-37.767296,147.669914
EAGLE POINT,3878,-37.89463,147.670253
BOOLE POOLE,3880,-37.924908,147.693728
OCEAN GRANGE,3880,-37.964941,147.762738
PAYNESVILLE,3880,-37.91898,147.719554
RAYMOND ISLAND,3880,-37.919088,147.73139
NICHOLSON,3882,-37.815478,147.734243
BRUTHEN,3885,-37.70793,147.831322
BUCHAN,3885,-37.497243,148.172933
BUCHAN SOUTH,3885,-37.549724,148.120448
BUTCHERS RIDGE,3885,-37.26206,148.260612
GELANTIPY,3885,-37.224306,148.263629
MOSSIFACE,3885,-37.742867,147.816491
MURRINDAL,3885,-37.414756,148.205594
SUGGAN BUGGAN,3885,-36.981011,148.272173
TAMBO UPPER,3885,-37.762781,147.866933
TIMBARRA,3885,-37.48838,147.922484
W TREE,3885,-37.3301,148.272063
WISELEIGH,3885,-37.712037,147.808551
WULGULMERANG,3885,-36.989676,148.284947
WULGULMERANG EAST,3885,-37.101279,148.283994
WULGULMERANG WEST,3885,-37.371263,148.139699
YALMY,3885,-37.475473,148.403054
NEWMERELLA,3886,-37.735401,148.433878
LAKE TYERS,3887,-37.841038,148.121299
NOWA NOWA,3887,-37.733238,148.089423
WAIREWA,3887,-37.691434,148.167518
BENDOC,3888,-37.146838,148.884272
BETE BOLONG,3888,-37.692622,148.371357
BETE BOLONG NORTH,3888,-37.595833,148.293251
BONANG,3888,-37.203326,148.729988
BRODRIBB RIVER,3888,-37.704721,148.567094
CABANANDRA,3888,-37.16078,148.67573
CAPE CONRAN,3888,-37.780263,148.717584
CORRINGLE,3888,-37.795606,148.456588
DEDDICK VALLEY,3888,-37.075243,148.473926
DELEGATE RIVER EAST,3888,-37.067497,148.79638
DELLICKNORA,3888,-37.116147,148.667475
GOONGERAH,3888,-37.337817,148.697947
HAYDENS BOG,3888,-37.106055,148.869502
JARRAHMOND,3888,-37.699983,148.407389
LOCHEND,3888,-37.723924,148.494323
MARLO,3888,-37.795334,148.532921
MARTINS CREEK,3888,-37.43311,148.598069
NURRAN,3888,-37.552007,148.57144
OMEO VALLEY,3888,-36.944911,147.616754
ORBOST,3888,-37.707336,148.454887
SIMPSONS CREEK,3888,-37.767516,148.365433
TOSTAREE,3888,-37.748452,148.177741
TUBBUT,3888,-37.066803,148.583702
WAYGARA,3888,-37.741349,148.316317
WOMBAT CREEK,3888,-37.767946,148.255899
BELLBIRD CREEK,3889,-37.927902,145.906217
BEMM RIVER,3889,-37.758351,148.964815
CABBAGE TREE CREEK,3889,-37.704375,148.710484
CLUB TERRACE,3889,-37.502009,148.925069
COMBIENBAR,3889,-37.417999,149.009429
ERRINUNDRA,3889,-37.473676,148.761323
MANORINA,3889,-37.690264,148.79858
BULDAH,3890,-37.270391,149.144376
CANN RIVER,3890,-37.564236,149.151747
CHANDLERS CREEK,3890,-37.347633,149.20243
NOORINBEE,3890,-37.475783,149.180115
NOORINBEE NORTH,3890,-37.432133,149.197997
TAMBOON,3890,-37.743427,149.139474
TONGHI CREEK,3890,-37.564465,149.061404
WEERAGUA,3890,-37.34599,149.08873
GENOA,3891,-37.475736,149.592844
GIPSY POINT,3891,-37.479913,149.680067
MARAMINGO CREEK,3891,-37.404558,149.59035
WALLAGARAUGH,3891,-37.435684,149.748403
WANGARABELL,3891,-37.380615,149.492347
WINGAN RIVER,3891,-37.586718,149.489277
WROXHAM,3891,-37.350782,149.479885
MALLACOOTA,3892,-37.549486,149.729223
DOUBLE BRIDGES,3893,-37.590191,147.893491
STIRLING,3893,-37.439406,147.656634
TAMBO CROSSING,3893,-37.495876,147.83403
DOCTORS FLAT,3895,-37.298674,147.748627
ENSAY,3895,-37.374717,147.836841
ENSAY NORTH,3895,-37.326511,147.840526
REEDY CREEK,3895,-37.422573,147.937166
BINDI,3896,-37.112351,147.812864
BROOKVILLE,3896,-37.323086,147.624598
NUNNIONG,3896,-37.23774,147.950459
SWIFTS CREEK,3896,-37.2501,147.712099
TONGIO,3896,-37.208132,147.718065
ANGLERS REST,3898,-37.019423,147.470661
BINGO,3898,-37.007954,147.565477
BINGO MUNJIE,3898,-37.007954,147.565477
BUNDARA,3898,-37.019203,147.371557
CASSILIS,3898,-37.221661,147.600852
COBUNGRA,3898,-37.095299,147.413436
DINNER PLAIN,3898,-37.033184,147.274815
GLEN VALLEY,3898,-36.897686,147.463525
GLEN WILLS,3898,-36.837534,147.501256
HINNOMUNJIE,3898,-37.011521,147.656952
OMEO,3898,-37.098832,147.594222
SHANNONVALE,3898,-36.930553,147.423253
BENAMBRA,3900,-36.949754,147.703226
COBBERAS,3900,-36.83141,148.005953
UPLANDS,3900,-37.871105,147.992815
BUMBERRAH,3902,-37.792719,147.830756
JOHNSONVILLE,3902,-37.820156,147.830563
SWAN REACH,3903,-37.810093,147.84454
METUNG,3904,-37.87152,147.847355
KALIMNA,3909,-37.857772,147.922922
KALIMNA WEST,3909,-37.865159,147.951995
LAKE BUNGA,3909,-37.860751,148.035927
LAKE TYERS BEACH,3909,-37.859049,148.086768
LAKES ENTRANCE,3909,-37.881499,147.982787
NUNGURNER,3909,-37.880277,147.885873
NYERIMILANG,3909,-37.870034,147.918614
TOORLOO ARM,3909,-37.807188,148.039354
LANGWARRIN,3910,-38.153809,145.185851
BAXTER,3911,-38.195383,145.158007
LANGWARRIN SOUTH,3911,-38.198507,145.182526
PEARCEDALE,3912,-38.202617,145.232339
SOMERVILLE,3912,-38.223956,145.175798
TYABB,3913,-38.259808,145.186464
HASTINGS,3915,-38.30771,145.190507
TUERONG,3915,-38.297387,145.077506
MERRICKS,3916,-38.392646,145.085801
POINT LEO,3916,-38.416391,145.075863
SHOREHAM,3916,-38.427678,145.044425
BITTERN,3918,-38.337376,145.177993
CRIB POINT,3919,-38.366119,145.204068
FRENCH ISLAND,3921,-38.342506,145.338749
TANKERTON,3921,-38.385026,145.290896
COWES,3922,-38.450286,145.239003
SILVERLEAVES,3922,-38.452164,145.273978
SMITHS BEACH,3922,-38.498494,145.273131
SUMMERLANDS,3922,-38.506601,145.145082
SUNDERLAND BAY,3922,-38.507505,145.277902
SUNSET STRIP,3922,-38.497091,145.262363
SURF BEACH,3922,-38.51091,145.296151
VENTNOR,3922,-38.459022,145.19073
WIMBLEDON HEIGHTS,3922,-38.480888,145.239905
RHYLL,3923,-38.460584,145.307964
CAPE WOOLAMAI,3925,-38.54338,145.340775
CHURCHILL ISLAND,3925,-38.49979,145.337451
NEWHAVEN,3925,-38.514776,145.357945
SAN REMO,3925,-38.520564,145.373057
BALNARRING,3926,-38.373497,145.126733
BALNARRING BEACH,3926,-38.388439,145.12449
MERRICKS BEACH,3926,-38.401152,145.10014
MERRICKS NORTH,3926,-38.353666,145.08415
SOMERS,3927,-38.383442,145.147627
MAIN RIDGE,3928,-38.400438,144.970958
FLINDERS,3929,-38.473815,145.01628
KUNYUNG,3930,-38.191618,145.079095
MOUNT ELIZA,3930,-38.187263,145.089626
MORNINGTON,3931,-38.238386,145.064195
MOOROODUC,3933,-38.237072,145.087375
MOUNT MARTHA,3934,-38.302366,144.994873
ARTHURS SEAT,3936,-38.354428,144.949793
DROMANA,3936,-38.333311,144.963564
SAFETY BEACH,3936,-38.314903,144.9906
RED HILL,3937,-38.37014,145.012073
RED HILL SOUTH,3937,-38.382404,145.023052
MCCRAE,3938,-37.990225,145.21956
BONEO,3939,-38.398469,144.904098
CAPE SCHANCK,3939,-38.464988,144.899983
FINGAL,3939,-38.425698,144.887086
ROSEBUD,3939,-38.355262,144.906239
ROSEBUD PLAZA,3939,-38.35533,144.905978
RYE,3941,-38.370692,144.824741
ST ANDREWS BEACH,3941,-38.41506,144.823523
TOOTGAROOK,3941,-38.368159,144.862455
BLAIRGOWRIE,3942,-38.359005,144.768511
SORRENTO,3943,-38.344297,144.73807
PORTSEA,3944,-38.338347,144.709285
BELLVIEW,3945,-37.970297,145.155125
JEETHO,3945,-38.394683,145.741066
KROWERA,3945,-38.436892,145.674615
LOCH,3945,-38.369038,145.709149
WOODLEIGH,3945,-38.414251,145.640882
BENA,3946,-38.433031,145.722184
KARDELLA SOUTH,3950,-38.449367,145.877524
KORUMBURRA,3950,-38.431929,145.823567
KORUMBURRA SOUTH,3950,-38.459162,145.821233
STRZELECKI,3950,-38.349279,145.888176
WHITELAW,3950,-38.435084,145.777786
ARAWATA,3951,-38.394907,145.888218
FAIRBANK,3951,-38.411503,145.935854
JUMBUNNA,3951,-38.470573,145.77112
KARDELLA,3951,-38.426697,145.866891
KONGWAK,3951,-38.518208,145.703644
MOYARRA,3951,-38.490367,145.740876
OUTTRIM,3951,-38.493462,145.767714
RANCEBY,3951,-38.37462,145.839244
BERRYS CREEK,3953,-38.406667,146.069703
BOOROOL,3953,-38.443382,146.077181
HALLSTON,3953,-38.35729,146.033824
KOOROOMAN,3953,-38.467534,146.011056
LEONGATHA,3953,-38.476151,145.946299
LEONGATHA NORTH,3953,-38.447916,145.951052
LEONGATHA SOUTH,3953,-38.532316,145.876434
MARDAN,3953,-38.478774,146.118977
MOUNT ECCLES,3953,-38.361373,145.977791
MOUNT ECCLES SOUTH,3953,-38.413108,145.994278
NERRENA,3953,-38.495434,146.005084
RUBY,3953,-38.440221,145.919627
TRIDA,3953,-38.315402,145.971875
WILD DOG VALLEY,3953,-38.369483,145.944689
KOONWARRA,3954,-38.547015,145.948111
DUMBALK,3956,-38.531629,146.095008
DUMBALK NORTH,3956,-38.505983,146.168253
MEENIYAN,3956,-38.577663,146.014655
MIRBOO SOUTH,3956,-38.526032,146.207508
TARWIN,3956,-38.578138,145.982532
TARWIN LOWER,3956,-38.701426,145.869274
VENUS BAY,3956,-38.702427,145.827779
WALKERVILLE,3956,-38.860948,145.998523
WALKERVILLE SOUTH,3956,-38.88952,145.981959
GRASSY SPUR,3957,-37.944787,145.273438
STONY CREEK,3957,-38.583226,146.144844
BUFFALO,3958,-38.642608,146.074806
BUFFALO CREEK,3958,-38.634604,146.052231
FISH CREEK,3959,-38.694358,146.082083
HODDLE,3959,-38.69034,146.143749
SANDY POINT,3959,-38.819907,146.118986
WARATAH BAY,3959,-38.810991,146.042621
WARATAH NORTH,3959,-38.773869,146.072353
BENNISON,3960,-38.668395,146.266751
BOOLARONG,3960,-38.566919,146.255704
FOSTER,3960,-38.65259,146.202007
FOSTER NORTH,3960,-38.621707,146.170021
GUNYAH,3960,-38.566342,146.305111
MOUNT BEST,3960,-38.600297,146.311507
SHALLOW INLET,3960,-38.813056,146.168906
TIDAL RIVER,3960,-39.03009,146.320865
TURTONS CREEK,3960,-38.547382,146.24338
WILSONS PROMONTORY,3960,-38.924873,146.329839
WONGA,3960,-38.616067,146.254183
WOORARRA WEST,3960,-38.589541,146.184647
YANAKIE,3960,-38.829607,146.238119
AGNES,3962,-38.670149,146.396151
CHRISTIES,3962,-38.532794,146.392908
TOORA,3962,-38.662098,146.326724
TOORA NORTH,3962,-38.588896,146.332813
WONYIP,3962,-38.55954,146.397048
WOORARRA,3962,-38.581564,146.317813
WOORARRA EAST,3962,-38.602895,146.381201
PORT FRANKLIN,3964,-38.679229,146.270581
PORT WELSHPOOL,3965,-38.691833,146.454398
BINGINWARRI,3966,-38.584197,146.453313
HAZEL PARK,3966,-38.627993,146.376211
WELSHPOOL,3966,-38.665564,146.436128
HEDLEY,3967,-37.693272,144.961131
ALBERTON,3971,-38.611394,146.66598
ALBERTON WEST,3971,-38.598686,146.587948
BALOOK,3971,-38.431459,146.565061
CALROSSIE,3971,-38.49391,146.666161
DEVON NORTH,3971,-38.505036,146.649674
GELLIONDALE,3971,-38.626917,146.603738
HIAWATHA,3971,-38.52267,146.476713
HUNTERSTON,3971,-38.580032,146.780079
JACK RIVER,3971,-38.552888,146.581578
LANGSBOROUGH,3971,-38.651487,146.675098
MACKS CREEK,3971,-38.473774,146.64119
MADALYA,3971,-38.496201,146.472685
MANNS BEACH,3971,-38.644833,146.781284
PORT ALBERT,3971,-38.671789,146.692958
ROBERTSONS BEACH,3971,-38.658005,146.730807
STACEYS BRIDGE,3971,-38.559554,146.518605
TARRA VALLEY,3971,-38.469166,146.570952
TARRAVILLE,3971,-38.624845,146.723439
WON WRON,3971,-38.451398,146.737355
YARRAM,3971,-38.562402,146.676035
LYNBROOK,3975,-38.050457,145.257531
LYNDHURST,3975,-38.053275,145.244343
HAMPTON PARK,3976,-38.032221,145.267863
CANNONS CREEK,3977,-38.212992,145.315447
CRANBOURNE,3977,-38.11122,145.268832
CRANBOURNE EAST,3977,-38.117857,145.320381
CRANBOURNE NORTH,3977,-38.082218,145.276538
CRANBOURNE SOUTH,3977,-38.145571,145.226226
CRANBOURNE WEST,3977,-38.109374,145.25241
DEVON MEADOWS,3977,-38.162501,145.319677
JUNCTION VILLAGE,3977,-38.138435,145.294077
SANDHURST,3977,-38.080718,145.209511
SKYE,3977,-38.1183,145.203099
CARDINIA,3978,-38.145962,145.423291
CLYDE,3978,-38.13472,145.334321
CLYDE NORTH,3978,-38.118738,145.327258
ALMURTA,3979,-38.434865,145.558415
GLEN ALVIE,3979,-38.497122,145.646179
KERNOT,3979,-38.426639,145.597787
KORRINE,3979,-38.532849,145.652943
BLIND BIGHT,3980,-38.211236,145.340207
TOORADIN,3980,-38.210636,145.380072
WARNEET,3980,-38.220563,145.314044
BAYLES,3981,-38.179036,145.573638
CATANI,3981,-38.188905,145.648437
DALMORE,3981,-38.192976,145.442456
HEATH HILL,3981,-38.239192,145.707089
KOO WEE RUP,3981,-38.19937,145.490761
KOO WEE RUP NORTH,3981,-38.167334,145.520264
YANNATHAN,3981,-38.228782,145.639804
ADAMS ESTATE,3984,-38.323843,145.539805
CALDERMEADE,3984,-38.257421,145.550044
CORINELLA,3984,-38.414437,145.432099
CORONET BAY,3984,-38.427069,145.467185
GRANTVILLE,3984,-38.408411,145.532454
JAM JERRUP,3984,-38.324246,145.521237
LANG LANG,3984,-38.264951,145.564762
LANG LANG EAST,3984,-38.251513,145.656429
MONOMEITH,3984,-38.192928,145.516583
PIONEER BAY,3984,-38.322117,145.526408
QUEENSFERRY,3984,-38.419024,145.499977
TENBY POINT,3984,-38.44102,145.510723
THE GURDIES,3984,-38.373978,145.56117
NYORA,3987,-38.333067,145.670441
MOUNTAIN VIEW,3988,-38.294339,145.886342
POOWONG,3988,-38.342951,145.765454
POOWONG EAST,3988,-38.320894,145.831048
POOWONG NORTH,3988,-38.289395,145.768796
GLEN FORBES,3990,-38.449183,145.532297
BASS,3991,-38.480541,145.467733
BLACKWOOD FOREST,3992,-38.493513,145.616162
DALYSTON,3992,-38.563459,145.547409
RYANSTON,3992,-38.54492,145.577478
WEST CREEK,3992,-38.575998,145.6322
ANDERSON,3995,-38.527605,145.446731
ARCHIES CREEK,3995,-38.541874,145.55404
CAPE PATERSON,3995,-38.67086,145.656474
HARMERS HAVEN,3995,-38.645417,145.581804
HICKSBOROUGH,3995,-38.587628,145.563172
KILCUNDA,3995,-38.549173,145.475411
LANCE CREEK,3995,-38.559606,145.63577
NORTH WONTHAGGI,3995,-38.597829,145.605094
POWLETT RIVER,3995,-38.564322,145.545551
SOUTH DUDLEY,3995,-38.598847,145.578444
ST CLAIR,3995,-38.583991,145.6485
WATTLE BANK,3995,-38.576309,145.700931
WONTHAGGI,3995,-38.606312,145.588583
WOOLAMAI,3995,-38.498651,145.520561
INVERLOCH,3996,-38.632958,145.729641
POUND CREEK,3996,-38.627873,145.808696
MELBOURNE,8001,-38.365017,144.76592
EAST MELBOURNE,8002,-38.105449,145.147855
ST KILDA ROAD,8004,-37.836219,144.975549
WORLD TRADE CENTRE,8005,-37.822262,144.954856
ABECKETT STREET,8006,-37.809696,144.959314
FLINDERS LANE,8009,-37.817201,144.964531
LAW COURTS,8010,-38.185857,146.293728
LITTLE LONSDALE STREET,8011,-37.811301,144.961819
MELBOURNE,8045,-38.365017,144.76592
MELBOURNE,8051,-38.365017,144.76592
MELBOURNE,8060,-38.365017,144.76592
MELBOURNE,8061,-38.365017,144.76592
MELBOURNE,8066,-38.365017,144.76592
MELBOURNE,8069,-38.365017,144.76592
MELBOURNE,8070,-38.365017,144.76592
MELBOURNE,8071,-38.365017,144.76592
MELBOURNE,8102,-38.365017,144.76592
MELBOURNE,8103,-38.365017,144.76592
MELBOURNE,8107,-38.365017,144.76592
MELBOURNE,8108,-38.365017,144.76592
MELBOURNE,8111,-38.365017,144.76592
MELBOURNE,8120,-38.365017,144.76592
MELBOURNE,8205,-38.365017,144.76592
MELBOURNE,8383,-38.365017,144.76592
MELBOURNE,8386,-38.365017,144.76592
MELBOURNE,8388,-38.365017,144.76592
MELBOURNE,8390,-38.365017,144.76592
MELBOURNE,8393,-38.365017,144.76592
MELBOURNE,8394,-38.365017,144.76592
MELBOURNE,8396,-38.365017,144.76592
MELBOURNE,8399,-38.365017,144.76592
NORTH MELBOURNE,8500,-37.905996,145.056254
CARLTON,8507,-37.960325,145.215601
BRUNSWICK,8538,-37.794105,144.979191
FITZROY,8557,-37.859514,144.977808
IVANHOE,8576,-37.764016,145.044798
HAWTHORN,8622,-37.88986,145.021417
CAMBERWELL,8626,-37.836011,145.062173
CAMBERWELL,8627,-37.836011,145.062173
DANDENONG,8785,-37.893104,145.088205
SOUTH MELBOURNE,8865,-37.93291,145.033718
PORT MELBOURNE,8873,-37.846333,144.885746
